{
	"data": [
		{"zipCode":"0640927","stateKana":"ホッカイドウ","cityKana":"サッポロシチュウオウク","streetKana":"ミナミ２７ジョウニシ","state":"北海道","city":"札幌市中央区","street":"南二十七条西"},
		{"zipCode":"0600819","stateKana":"ホッカイドウ","cityKana":"サッポロシキタク","streetKana":"キタ１９ジョウニシ","state":"北海道","city":"札幌市北区","street":"北十九条西","chomeRange":"8-13"},
		{"zipCode":"0010922","stateKana":"ホッカイドウ","cityKana":"サッポロシキタク","streetKana":"シンカワ２ジョウ","state":"北海道","city":"札幌市北区","street":"新川二条"},
		{"zipCode":"0028064","stateKana":"ホッカイドウ","cityKana":"サッポロシキタク","streetKana":"タクホク４ジョウ","state":"北海道","city":"札幌市北区","street":"拓北四条"},
		{"zipCode":"0070886","stateKana":"ホッカイドウ","cityKana":"サッポロシヒガシク","streetKana":"キタオカダマ６ジョウ","state":"北海道","city":"札幌市東区","street":"北丘珠六条"},
		{"zipCode":"0070839","stateKana":"ホッカイドウ","cityKana":"サッポロシヒガシク","streetKana":"キタ３９ジョウヒガシ","state":"北海道","city":"札幌市東区","street":"北三十九条東"},
		{"zipCode":"0070034","stateKana":"ホッカイドウ","cityKana":"サッポロシヒガシク","streetKana":"ヒガシカリキ１４ジョウ","state":"北海道","city":"札幌市東区","street":"東雁来十四条"},
		{"zipCode":"0030855","stateKana":"ホッカイドウ","cityKana":"サッポロシシロイシク","streetKana":"カワキタ５ジョウ","state":"北海道","city":"札幌市白石区","street":"川北五条"},
		{"zipCode":"0030839","stateKana":"ホッカイドウ","cityKana":"サッポロシシロイシク","streetKana":"キタゴウ９ジョウ","state":"北海道","city":"札幌市白石区","street":"北郷九条"},
		{"zipCode":"0620055","stateKana":"ホッカイドウ","cityKana":"サッポロシトヨヒラク","streetKana":"ツキサムヒガシ５ジョウ","state":"北海道","city":"札幌市豊平区","street":"月寒東五条"},
		{"zipCode":"0620011","stateKana":"ホッカイドウ","cityKana":"サッポロシトヨヒラク","streetKana":"ミソノ１１ジョウ","state":"北海道","city":"札幌市豊平区","street":"美園十一条"},
		{"zipCode":"0050006","stateKana":"ホッカイドウ","cityKana":"サッポロシミナミク","streetKana":"スミカワ６ジョウ","state":"北海道","city":"札幌市南区","street":"澄川六条"},
		{"zipCode":"0630044","stateKana":"ホッカイドウ","cityKana":"サッポロシニシク","streetKana":"ニシノ１４ジョウ","state":"北海道","city":"札幌市西区","street":"西野十四条"},
		{"zipCode":"0630834","stateKana":"ホッカイドウ","cityKana":"サッポロシニシク","streetKana":"ハッサム１４ジョウ","state":"北海道","city":"札幌市西区","street":"発寒十四条"},
		{"zipCode":"0040061","stateKana":"ホッカイドウ","cityKana":"サッポロシアツベツク","streetKana":"アツベツニシ１ジョウ","state":"北海道","city":"札幌市厚別区","street":"厚別西一条"},
		{"zipCode":"0060041","stateKana":"ホッカイドウ","cityKana":"サッポロシテイネク","streetKana":"カナヤマ１ジョウ","state":"北海道","city":"札幌市手稲区","street":"金山一条"},
		{"zipCode":"0060811","stateKana":"ホッカイドウ","cityKana":"サッポロシテイネク","streetKana":"マエダ１ジョウ","state":"北海道","city":"札幌市手稲区","street":"前田一条"},
		{"zipCode":"0470032","stateKana":"ホッカイドウ","cityKana":"オタルシ","streetKana":"イナホ","state":"北海道","city":"小樽市","street":"稲穂"},
		{"zipCode":"0788314","stateKana":"ホッカイドウ","cityKana":"アサヒカワシ","streetKana":"カグラオカ４ジョウ","state":"北海道","city":"旭川市","street":"神楽岡４条"},
		{"zipCode":"0700002","stateKana":"ホッカイドウ","cityKana":"アサヒカワシ","streetKana":"シントミ２ジョウ","state":"北海道","city":"旭川市","street":"新富２条"},
		{"zipCode":"0788347","stateKana":"ホッカイドウ","cityKana":"アサヒカワシ","streetKana":"トウコウ７ジョウ","state":"北海道","city":"旭川市","street":"東光７条"},
		{"zipCode":"0798411","stateKana":"ホッカイドウ","cityKana":"アサヒカワシ","streetKana":"ナガヤマ１ジョウ","state":"北海道","city":"旭川市","street":"永山１条"},
		{"zipCode":"0788252","stateKana":"ホッカイドウ","cityKana":"アサヒカワシ","streetKana":"ヒガシアサヒカワキタ２ジョウ","state":"北海道","city":"旭川市","street":"東旭川北２条"},
		{"zipCode":"0788391","stateKana":"ホッカイドウ","cityKana":"アサヒカワシ","streetKana":"ミヤマエ１ジョウ","state":"北海道","city":"旭川市","street":"宮前１条"},
		{"zipCode":"0840910","stateKana":"ホッカイドウ","cityKana":"クシロシ","streetKana":"ショウワチュウオウ","state":"北海道","city":"釧路市","street":"昭和中央"},
		{"zipCode":"0800031","stateKana":"ホッカイドウ","cityKana":"オビヒロシ","streetKana":"ニシ１ジョウキタ","state":"北海道","city":"帯広市","street":"西一条北"},
		{"zipCode":"0802470","stateKana":"ホッカイドウ","cityKana":"オビヒロシ","streetKana":"ニシ２０ジョウミナミ","state":"北海道","city":"帯広市","street":"西二十条南"},
		{"zipCode":"0900044","stateKana":"ホッカイドウ","cityKana":"キタミシ","streetKana":"キタ４ジョウニシ","state":"北海道","city":"北見市","street":"北四条西"},
		{"zipCode":"0680058","stateKana":"ホッカイドウ","cityKana":"イワミザワシ","streetKana":"サクラギ１ジョウ","state":"北海道","city":"岩見沢市","street":"桜木一条"},
		{"zipCode":"0680816","stateKana":"ホッカイドウ","cityKana":"イワミザワシ","streetKana":"ミソノ６ジョウ","state":"北海道","city":"岩見沢市","street":"美園六条"},
		{"zipCode":"0680026","stateKana":"ホッカイドウ","cityKana":"イワミザワシ","streetKana":"６ジョウニシ","state":"北海道","city":"岩見沢市","street":"六条西"},
		{"zipCode":"0930059","stateKana":"ホッカイドウ","cityKana":"アバシリシ","streetKana":"キタ９ジョウヒガシ","state":"北海道","city":"網走市","street":"北九条東"},
		{"zipCode":"0930012","stateKana":"ホッカイドウ","cityKana":"アバシリシ","streetKana":"ミナミ２ジョウニシ","state":"北海道","city":"網走市","street":"南二条西"},
		{"zipCode":"0530018","stateKana":"ホッカイドウ","cityKana":"トマコマイシ","streetKana":"アサヒマチ","state":"北海道","city":"苫小牧市","street":"旭町"},
		{"zipCode":"0530011","stateKana":"ホッカイドウ","cityKana":"トマコマイシ","streetKana":"スエヒロチョウ","state":"北海道","city":"苫小牧市","street":"末広町"},
		{"zipCode":"0530032","stateKana":"ホッカイドウ","cityKana":"トマコマイシ","streetKana":"ミドリマチ","state":"北海道","city":"苫小牧市","street":"緑町"},
		{"zipCode":"0720007","stateKana":"ホッカイドウ","cityKana":"ビバイシ","streetKana":"ヒガシ６ジョウキタ","state":"北海道","city":"美唄市","street":"東六条北"},
		{"zipCode":"0750016","stateKana":"ホッカイドウ","cityKana":"アシベツシ","streetKana":"キタ６ジョウヒガシ","state":"北海道","city":"芦別市","street":"北六条東"},
		{"zipCode":"0791113","stateKana":"ホッカイドウ","cityKana":"アカビラシ","streetKana":"ワカキチョウヒガシ","state":"北海道","city":"赤平市","street":"若木町東"},
		{"zipCode":"0940014","stateKana":"ホッカイドウ","cityKana":"モンベツシ","streetKana":"ミドリチョウ","state":"北海道","city":"紋別市","street":"緑町"},
		{"zipCode":"0960032","stateKana":"ホッカイドウ","cityKana":"ナヨロシ","streetKana":"ニシ２ジョウキタ","state":"北海道","city":"名寄市","street":"西二条北"},
		{"zipCode":"0960008","stateKana":"ホッカイドウ","cityKana":"ナヨロシ","streetKana":"ヒガシ８ジョウミナミ","state":"北海道","city":"名寄市","street":"東八条南"},
		{"zipCode":"0870025","stateKana":"ホッカイドウ","cityKana":"ネムロシ","streetKana":"ニシハマチョウ","state":"北海道","city":"根室市","street":"西浜町"},
		{"zipCode":"0660034","stateKana":"ホッカイドウ","cityKana":"チトセシ","streetKana":"トミオカ","state":"北海道","city":"千歳市","street":"富丘"},
		{"zipCode":"0730016","stateKana":"ホッカイドウ","cityKana":"タキカワシ","streetKana":"イチノサカチョウヒガシ","state":"北海道","city":"滝川市","street":"一の坂町東"},
		{"zipCode":"0730173","stateKana":"ホッカイドウ","cityKana":"スナガワシ","streetKana":"ソラチブトニシ３ジョウ","state":"北海道","city":"砂川市","street":"空知太西三条"},
		{"zipCode":"0730154","stateKana":"ホッカイドウ","cityKana":"スナガワシ","streetKana":"ヒガシ４ジョウキタ","state":"北海道","city":"砂川市","street":"東四条北"},
		{"zipCode":"0611146","stateKana":"ホッカイドウ","cityKana":"キタヒロシマシ","streetKana":"タカダイチョウ","state":"北海道","city":"北広島市","street":"高台町"},
		{"zipCode":"0613201","stateKana":"ホッカイドウ","cityKana":"イシカリシ","streetKana":"ハナカワミナミ１ジョウ","state":"北海道","city":"石狩市","street":"花川南一条"},
		{"zipCode":"0440052","stateKana":"ホッカイドウ","cityKana":"アブタグンクッチャンチョウ","streetKana":"キタ２ジョウニシ","state":"北海道","city":"虻田郡倶知安町","street":"北二条西"},
		{"zipCode":"0440023","stateKana":"ホッカイドウ","cityKana":"アブタグンクッチャンチョウ","streetKana":"ミナミ９ジョウヒガシ","state":"北海道","city":"虻田郡倶知安町","street":"南九条東"},
		{"zipCode":"0482411","stateKana":"ホッカイドウ","cityKana":"ヨイチグンニキチョウ","streetKana":"ヒガシマチ","state":"北海道","city":"余市郡仁木町","street":"東町"},
		{"zipCode":"0711233","stateKana":"ホッカイドウ","cityKana":"カミカワグンタカスチョウ","streetKana":"キタノニシ３ジョウ","state":"北海道","city":"上川郡鷹栖町","street":"北野西三条"},
		{"zipCode":"0920015","stateKana":"ホッカイドウ","cityKana":"アバシリグンビホロチョウ","streetKana":"シンマチ","state":"北海道","city":"網走郡美幌町","street":"新町"},
		{"zipCode":"0540022","stateKana":"ホッカイドウ","cityKana":"ユウフツグンムカワチョウ","streetKana":"ハナゾノ","state":"北海道","city":"勇払郡むかわ町","street":"花園"},
		{"zipCode":"0550006","stateKana":"ホッカイドウ","cityKana":"サルグンヒダカチョウ","streetKana":"トミカワミナミ","state":"北海道","city":"沙流郡日高町","street":"富川南"},
		{"zipCode":"0580026","stateKana":"ホッカイドウ","cityKana":"サマニグンサマニチョウ","streetKana":"ホンチョウ","state":"北海道","city":"様似郡様似町","street":"本町"},
		{"zipCode":"0800111","stateKana":"ホッカイドウ","cityKana":"カトウグンオトフケチョウ","streetKana":"キノオオドオリヒガシ","state":"北海道","city":"河東郡音更町","street":"木野大通東"},
		{"zipCode":"0800262","stateKana":"ホッカイドウ","cityKana":"カトウグンオトフケチョウ","streetKana":"トカチガワオンセンキタ","state":"北海道","city":"河東郡音更町","street":"十勝川温泉北"},
		{"zipCode":"0890113","stateKana":"ホッカイドウ","cityKana":"カミカワグンシミズチョウ","streetKana":"ミナミ５ジョウ","state":"北海道","city":"上川郡清水町","street":"南五条"},
		{"zipCode":"0820034","stateKana":"ホッカイドウ","cityKana":"カサイグンメムロチョウ","streetKana":"ニシ４ジョウ","state":"北海道","city":"河西郡芽室町","street":"西四条"},
		{"zipCode":"0893721","stateKana":"ホッカイドウ","cityKana":"アショログンアショロチョウ","streetKana":"アサヒマチ","state":"北海道","city":"足寄郡足寄町","street":"旭町"},
		{"zipCode":"0880621","stateKana":"ホッカイドウ","cityKana":"クシログンクシロチョウ","streetKana":"カツラギ","state":"北海道","city":"釧路郡釧路町","street":"桂木"},
		{"zipCode":"0880615","stateKana":"ホッカイドウ","cityKana":"クシログンクシロチョウ","streetKana":"ムツミ","state":"北海道","city":"釧路郡釧路町","street":"睦"},
		{"zipCode":"0881552","stateKana":"ホッカイドウ","cityKana":"アッケシグンハマナカチョウ","streetKana":"キリタップニシ２ジョウ","state":"北海道","city":"厚岸郡浜中町","street":"霧多布西二条"},
		{"zipCode":"0882312","stateKana":"ホッカイドウ","cityKana":"カワカミグンシベチャチョウ","streetKana":"カワカミ","state":"北海道","city":"川上郡標茶町","street":"川上"},
		{"zipCode":"0880305","stateKana":"ホッカイドウ","cityKana":"シラヌカグンシラヌカチョウ","streetKana":"サシウシ","state":"北海道","city":"白糠郡白糠町","street":"刺牛"},
		{"zipCode":"0880321","stateKana":"ホッカイドウ","cityKana":"シラヌカグンシラヌカチョウ","streetKana":"ニシ１ジョウキタ","state":"北海道","city":"白糠郡白糠町","street":"西一条北"},
		{"zipCode":"0861110","stateKana":"ホッカイドウ","cityKana":"シベツグンナカシベツチョウ","streetKana":"ニシ１０ジョウミナミ","state":"北海道","city":"標津郡中標津町","street":"西十条南"},
		{"zipCode":"0861017","stateKana":"ホッカイドウ","cityKana":"シベツグンナカシベツチョウ","streetKana":"ヒガシ１７ジョウミナミ","state":"北海道","city":"標津郡中標津町","street":"東十七条南"},
		{"zipCode":"0861037","stateKana":"ホッカイドウ","cityKana":"シベツグンナカシベツチョウ","streetKana":"ヒガシ３７ジョウミナミ","state":"北海道","city":"標津郡中標津町","street":"東三十七条南"},
		{"zipCode":"0861637","stateKana":"ホッカイドウ","cityKana":"シベツグンシベツチョウ","streetKana":"キタ７ジョウ","state":"北海道","city":"標津郡標津町","street":"北七条"},
		{"zipCode":"0300844","stateKana":"アオモリケン","cityKana":"アオモリシ","streetKana":"カツラギ","state":"青森県","city":"青森市","street":"桂木"},
		{"zipCode":"0368261","stateKana":"アオモリケン","cityKana":"ヒロサキシ","streetKana":"シゲモリシンチョウ","state":"青森県","city":"弘前市","street":"茂森新町"},
		{"zipCode":"0368131","stateKana":"アオモリケン","cityKana":"ヒロサキシ","streetKana":"チトセ","state":"青森県","city":"弘前市","street":"千年"},
		{"zipCode":"0368273","stateKana":"アオモリケン","cityKana":"ヒロサキシ","streetKana":"ニシシゲモリ","state":"青森県","city":"弘前市","street":"西茂森"},
		{"zipCode":"0392246","stateKana":"アオモリケン","cityKana":"ハチノヘシ","streetKana":"キキョウノコウギョウダンチ","state":"青森県","city":"八戸市","street":"桔梗野工業団地"},
		{"zipCode":"0370024","stateKana":"アオモリケン","cityKana":"ゴショガワラシ","streetKana":"ミドリチョウ","state":"青森県","city":"五所川原市","street":"みどり町"},
		{"zipCode":"0330063","stateKana":"アオモリケン","cityKana":"ミサワシ","streetKana":"カミクボ","state":"青森県","city":"三沢市","street":"上久保"},
		{"zipCode":"0200004","stateKana":"イワテケン","cityKana":"モリオカシ","streetKana":"ヤマギシ","state":"岩手県","city":"盛岡市","street":"山岸"},
		{"zipCode":"0240063","stateKana":"イワテケン","cityKana":"キタカミシ","streetKana":"クネンバシ","state":"岩手県","city":"北上市","street":"九年橋"},
		{"zipCode":"0260004","stateKana":"イワテケン","cityKana":"カマイシシ","streetKana":"マツバラチョウ","state":"岩手県","city":"釜石市","street":"松原町"},
		{"zipCode":"9830842","stateKana":"ミヤギケン","cityKana":"センダイシミヤギノク","streetKana":"ゴリン","state":"宮城県","city":"仙台市宮城野区","street":"五輪"},
		{"zipCode":"9820841","stateKana":"ミヤギケン","cityKana":"センダイシタイハクク","streetKana":"ムカイヤマ","state":"宮城県","city":"仙台市太白区","street":"向山"},
		{"zipCode":"9860866","stateKana":"ミヤギケン","cityKana":"イシノマキシ","streetKana":"アカネダイラ","state":"宮城県","city":"石巻市","street":"茜平"},
		{"zipCode":"9862114","stateKana":"ミヤギケン","cityKana":"イシノマキシ","streetKana":"シオトミチョウ","state":"宮城県","city":"石巻市","street":"塩富町"},
		{"zipCode":"9860836","stateKana":"ミヤギケン","cityKana":"イシノマキシ","streetKana":"ナンコウチョウ","state":"宮城県","city":"石巻市","street":"南光町"},
		{"zipCode":"9860021","stateKana":"ミヤギケン","cityKana":"イシノマキシ","streetKana":"ミドリチョウ","state":"宮城県","city":"石巻市","street":"緑町"},
		{"zipCode":"9880024","stateKana":"ミヤギケン","cityKana":"ケセンヌマシ","streetKana":"ナカマチ","state":"宮城県","city":"気仙沼市","street":"仲町"},
		{"zipCode":"9891607","stateKana":"ミヤギケン","cityKana":"シバタグンシバタマチ","streetKana":"フナオカシンエイ","state":"宮城県","city":"柴田郡柴田町","street":"船岡新栄"},
		{"zipCode":"0101419","stateKana":"アキタケン","cityKana":"アキタシ","streetKana":"ゴショノツツミダイ","state":"秋田県","city":"秋田市","street":"御所野堤台"},
		{"zipCode":"0100976","stateKana":"アキタケン","cityKana":"アキタシ","streetKana":"ヤバセミナミ","state":"秋田県","city":"秋田市","street":"八橋南"},
		{"zipCode":"9900822","stateKana":"ヤマガタケン","cityKana":"ヤマガタシ","streetKana":"キタヤマガタ","state":"山形県","city":"山形市","street":"北山形"},
		{"zipCode":"9900073","stateKana":"ヤマガタケン","cityKana":"ヤマガタシ","streetKana":"ダイノメ","state":"山形県","city":"山形市","street":"大野目"},
		{"zipCode":"9900042","stateKana":"ヤマガタケン","cityKana":"ヤマガタシ","streetKana":"ナヌカマチ","state":"山形県","city":"山形市","street":"七日町"},
		{"zipCode":"9902401","stateKana":"ヤマガタケン","cityKana":"ヤマガタシ","streetKana":"ヒラシミズ","state":"山形県","city":"山形市","street":"平清水"},
		{"zipCode":"9980055","stateKana":"ヤマガタケン","cityKana":"サカタシ","streetKana":"イイモリヤマ","state":"山形県","city":"酒田市","street":"飯森山"},
		{"zipCode":"9980075","stateKana":"ヤマガタケン","cityKana":"サカタシ","streetKana":"タカサゴ","state":"山形県","city":"酒田市","street":"高砂"},
		{"zipCode":"9980853","stateKana":"ヤマガタケン","cityKana":"サカタシ","streetKana":"ミズホ","state":"山形県","city":"酒田市","street":"みずほ"},
		{"zipCode":"9993126","stateKana":"ヤマガタケン","cityKana":"カミノヤマシ","streetKana":"カナオイニシ","state":"山形県","city":"上山市","street":"金生西"},
		{"zipCode":"9950011","stateKana":"ヤマガタケン","cityKana":"ムラヤマシ","streetKana":"タテオカキタマチ","state":"山形県","city":"村山市","street":"楯岡北町"},
		{"zipCode":"9630113","stateKana":"フクシマケン","cityKana":"コオリヤマシ","streetKana":"アサカマチウシニワ","state":"福島県","city":"郡山市","street":"安積町牛庭"},
		{"zipCode":"9631311","stateKana":"フクシマケン","cityKana":"コオリヤマシ","streetKana":"カミイズシマ","state":"福島県","city":"郡山市","street":"上伊豆島"},
		{"zipCode":"9630108","stateKana":"フクシマケン","cityKana":"コオリヤマシ","streetKana":"ササガワ","state":"福島県","city":"郡山市","street":"笹川"},
		{"zipCode":"9631156","stateKana":"フクシマケン","cityKana":"コオリヤマシ","streetKana":"タムラマチヒガシヤマ","state":"福島県","city":"郡山市","street":"田村町東山"},
		{"zipCode":"9630702","stateKana":"フクシマケン","cityKana":"コオリヤマシ","streetKana":"ミドリガオカヒガシ","state":"福島県","city":"郡山市","street":"緑ケ丘東"},
		{"zipCode":"9718152","stateKana":"フクシマケン","cityKana":"イワキシ","streetKana":"ショウナンダイ","state":"福島県","city":"いわき市","street":"湘南台"},
		{"zipCode":"9792112","stateKana":"フクシマケン","cityKana":"ミナミソウマシ","streetKana":"オダカクタマチ","state":"福島県","city":"南相馬市","street":"小高区田町"},
		{"zipCode":"9637741","stateKana":"フクシマケン","cityKana":"タムラグンミハルマチ","streetKana":"ヤシマダイ","state":"福島県","city":"田村郡三春町","street":"八島台"},
		{"zipCode":"3100031","stateKana":"イバラキケン","cityKana":"ミトシ","streetKana":"ダイクマチ","state":"茨城県","city":"水戸市","street":"大工町"},
		{"zipCode":"3114145","stateKana":"イバラキケン","cityKana":"ミトシ","streetKana":"フタバダイ","state":"茨城県","city":"水戸市","street":"双葉台"},
		{"zipCode":"3191225","stateKana":"イバラキケン","cityKana":"ヒタチシ","streetKana":"イシナザカチョウ","state":"茨城県","city":"日立市","street":"石名坂町"},
		{"zipCode":"3000848","stateKana":"イバラキケン","cityKana":"ツチウラシ","streetKana":"ニシネニシ","state":"茨城県","city":"土浦市","street":"西根西"},
		{"zipCode":"3010032","stateKana":"イバラキケン","cityKana":"リュウガサキシ","streetKana":"サヌキ","state":"茨城県","city":"龍ケ崎市","street":"佐貫"},
		{"zipCode":"3010043","stateKana":"イバラキケン","cityKana":"リュウガサキシ","streetKana":"マツバ","state":"茨城県","city":"龍ケ崎市","street":"松葉"},
		{"zipCode":"3050816","stateKana":"イバラキケン","cityKana":"ツクバシ","streetKana":"ガクエンノモリ","state":"茨城県","city":"つくば市","street":"学園の森"},
		{"zipCode":"3050074","stateKana":"イバラキケン","cityKana":"ツクバシ","streetKana":"コウヤダイ","state":"茨城県","city":"つくば市","street":"高野台"},
		{"zipCode":"3050047","stateKana":"イバラキケン","cityKana":"ツクバシ","streetKana":"センゲン","state":"茨城県","city":"つくば市","street":"千現"},
		{"zipCode":"3112425","stateKana":"イバラキケン","cityKana":"イタコシ","streetKana":"アヤメ","state":"茨城県","city":"潮来市","street":"あやめ"},
		{"zipCode":"3091212","stateKana":"イバラキケン","cityKana":"サクラガワシ","streetKana":"フジミダイ","state":"茨城県","city":"桜川市","street":"富士見台"},
		{"zipCode":"3140128","stateKana":"イバラキケン","cityKana":"カミスシ","streetKana":"オオノハラチュウオウ","state":"茨城県","city":"神栖市","street":"大野原中央"},
		{"zipCode":"3140256","stateKana":"イバラキケン","cityKana":"カミスシ","streetKana":"ワカマツチュウオウ","state":"茨城県","city":"神栖市","street":"若松中央"},
		{"zipCode":"3210967","stateKana":"トチギケン","cityKana":"ウツノミヤシ","streetKana":"ニシキ","state":"栃木県","city":"宇都宮市","street":"錦"},
		{"zipCode":"3260053","stateKana":"トチギケン","cityKana":"アシカガシ","streetKana":"イセチョウ","state":"栃木県","city":"足利市","street":"伊勢町"},
		{"zipCode":"3230828","stateKana":"トチギケン","cityKana":"オヤマシ","streetKana":"カミヤマ","state":"栃木県","city":"小山市","street":"神山"},
		{"zipCode":"3710035","stateKana":"グンマケン","cityKana":"マエバシシ","streetKana":"イワガミマチ","state":"群馬県","city":"前橋市","street":"岩神町"},
		{"zipCode":"3310823","stateKana":"サイタマケン","cityKana":"サイタマシキタク","streetKana":"ニッシンチョウ","state":"埼玉県","city":"さいたま市北区","street":"日進町"},
		{"zipCode":"3440067","stateKana":"サイタマケン","cityKana":"カスカベシ","streetKana":"チュウオウ","state":"埼玉県","city":"春日部市","street":"中央"},
		{"zipCode":"3620008","stateKana":"サイタマケン","cityKana":"アゲオシ","streetKana":"カミヒラチュウオウ","state":"埼玉県","city":"上尾市","street":"上平中央"},
		{"zipCode":"3400017","stateKana":"サイタマケン","cityKana":"ソウカシ","streetKana":"ヨシチョウ","state":"埼玉県","city":"草加市","street":"吉町"},
		{"zipCode":"3520021","stateKana":"サイタマケン","cityKana":"ニイザシ","streetKana":"アタゴ","state":"埼玉県","city":"新座市","street":"あたご"},
		{"zipCode":"3410002","stateKana":"サイタマケン","cityKana":"ミサトシ","streetKana":"ヒコオト","state":"埼玉県","city":"三郷市","street":"彦音"},
		{"zipCode":"3490104","stateKana":"サイタマケン","cityKana":"ハスダシ","streetKana":"ミドリチョウ","state":"埼玉県","city":"蓮田市","street":"緑町"},
		{"zipCode":"3560051","stateKana":"サイタマケン","cityKana":"フジミノシ","streetKana":"カメクボ","state":"埼玉県","city":"ふじみ野市","street":"亀久保"},
		{"zipCode":"3550216","stateKana":"サイタマケン","cityKana":"ヒキグンランザンマチ","streetKana":"ムサシダイ","state":"埼玉県","city":"比企郡嵐山町","street":"むさし台"},
		{"zipCode":"2600005","stateKana":"チバケン","cityKana":"チバシチュウオウク","streetKana":"ドウジョウミナミ","state":"千葉県","city":"千葉市中央区","street":"道場南"},
		{"zipCode":"2620014","stateKana":"チバケン","cityKana":"チバシハナミガワク","streetKana":"サツキガオカ","state":"千葉県","city":"千葉市花見川区","street":"さつきが丘"},
		{"zipCode":"2660032","stateKana":"チバケン","cityKana":"チバシミドリク","streetKana":"オユミノチュウオウ","state":"千葉県","city":"千葉市緑区","street":"おゆみ野中央"},
		{"zipCode":"2880831","stateKana":"チバケン","cityKana":"チョウシシ","streetKana":"ホンジョウマチ","state":"千葉県","city":"銚子市","street":"本城町"},
		{"zipCode":"2720142","stateKana":"チバケン","cityKana":"イチカワシ","streetKana":"カケママ","state":"千葉県","city":"市川市","street":"欠真間"},
		{"zipCode":"2720823","stateKana":"チバケン","cityKana":"イチカワシ","streetKana":"ヒガシスガノ","state":"千葉県","city":"市川市","street":"東菅野"},
		{"zipCode":"2730853","stateKana":"チバケン","cityKana":"フナバシシ","streetKana":"カナスギ","state":"千葉県","city":"船橋市","street":"金杉"},
		{"zipCode":"2740071","stateKana":"チバケン","cityKana":"フナバシシ","streetKana":"ナラシノ","state":"千葉県","city":"船橋市","street":"習志野"},
		{"zipCode":"2920065","stateKana":"チバケン","cityKana":"キサラヅシ","streetKana":"アヅマ","state":"千葉県","city":"木更津市","street":"吾妻"},
		{"zipCode":"2920821","stateKana":"チバケン","cityKana":"キサラヅシ","streetKana":"サクラマチ","state":"千葉県","city":"木更津市","street":"桜町"},
		{"zipCode":"2920819","stateKana":"チバケン","cityKana":"キサラヅシ","streetKana":"ハトリノ","state":"千葉県","city":"木更津市","street":"羽鳥野"},
		{"zipCode":"2850005","stateKana":"チバケン","cityKana":"サクラシ","streetKana":"ミヤマエ","state":"千葉県","city":"佐倉市","street":"宮前"},
		{"zipCode":"2830801","stateKana":"チバケン","cityKana":"トウガネシ","streetKana":"ヤサカダイ","state":"千葉県","city":"東金市","street":"八坂台"},
		{"zipCode":"2750005","stateKana":"チバケン","cityKana":"ナラシノシ","streetKana":"シンエイ","state":"千葉県","city":"習志野市","street":"新栄"},
		{"zipCode":"2770051","stateKana":"チバケン","cityKana":"カシワシ","streetKana":"カガ","state":"千葉県","city":"柏市","street":"加賀"},
		{"zipCode":"2770023","stateKana":"チバケン","cityKana":"カシワシ","streetKana":"チュウオウ","state":"千葉県","city":"柏市","street":"中央"},
		{"zipCode":"2700138","stateKana":"チバケン","cityKana":"ナガレヤマシ","streetKana":"オオタカノモリヒガシ","state":"千葉県","city":"流山市","street":"おおたかの森東"},
		{"zipCode":"2730111","stateKana":"チバケン","cityKana":"カマガヤシ","streetKana":"キタナカザワ","state":"千葉県","city":"鎌ケ谷市","street":"北中沢"},
		{"zipCode":"1070061","stateKana":"トウキョウト","cityKana":"ミナトク","streetKana":"キタアオヤマ","state":"東京都","city":"港区","street":"北青山"},
		{"zipCode":"1130031","stateKana":"トウキョウト","cityKana":"ブンキョウク","streetKana":"ネヅ","state":"東京都","city":"文京区","street":"根津"},
		{"zipCode":"1110041","stateKana":"トウキョウト","cityKana":"タイトウク","streetKana":"モトアサクサ","state":"東京都","city":"台東区","street":"元浅草"},
		{"zipCode":"1360072","stateKana":"トウキョウト","cityKana":"コウトウク","streetKana":"オオジマ","state":"東京都","city":"江東区","street":"大島"},
		{"zipCode":"1410031","stateKana":"トウキョウト","cityKana":"シナガワク","streetKana":"ニシゴタンダ","state":"東京都","city":"品川区","street":"西五反田"},
		{"zipCode":"1530063","stateKana":"トウキョウト","cityKana":"メグロク","streetKana":"メグロ","state":"東京都","city":"目黒区","street":"目黒"},
		{"zipCode":"1430026","stateKana":"トウキョウト","cityKana":"オオタク","streetKana":"ニシマゴメ","state":"東京都","city":"大田区","street":"西馬込"},
		{"zipCode":"1570065","stateKana":"トウキョウト","cityKana":"セタガヤク","streetKana":"カミソシガヤ","state":"東京都","city":"世田谷区","street":"上祖師谷"},
		{"zipCode":"1580081","stateKana":"トウキョウト","cityKana":"セタガヤク","streetKana":"フカサワ","state":"東京都","city":"世田谷区","street":"深沢"},
		{"zipCode":"1680073","stateKana":"トウキョウト","cityKana":"スギナミク","streetKana":"シモタカイド","state":"東京都","city":"杉並区","street":"下高井戸"},
		{"zipCode":"1140011","stateKana":"トウキョウト","cityKana":"キタク","streetKana":"ショウワマチ","state":"東京都","city":"北区","street":"昭和町"},
		{"zipCode":"1760005","stateKana":"トウキョウト","cityKana":"ネリマク","streetKana":"アサヒガオカ","state":"東京都","city":"練馬区","street":"旭丘"},
		{"zipCode":"1770034","stateKana":"トウキョウト","cityKana":"ネリマク","streetKana":"フジミダイ","state":"東京都","city":"練馬区","street":"富士見台"},
		{"zipCode":"1200025","stateKana":"トウキョウト","cityKana":"アダチク","streetKana":"センジュアズマ","state":"東京都","city":"足立区","street":"千住東"},
		{"zipCode":"1210076","stateKana":"トウキョウト","cityKana":"アダチク","streetKana":"ヒラノ","state":"東京都","city":"足立区","street":"平野"},
		{"zipCode":"1240004","stateKana":"トウキョウト","cityKana":"カツシカク","streetKana":"ヒガシホリキリ","state":"東京都","city":"葛飾区","street":"東堀切"},
		{"zipCode":"1340003","stateKana":"トウキョウト","cityKana":"エドガワク","streetKana":"ハルエチョウ","state":"東京都","city":"江戸川区","street":"春江町","chomeRange":"4､5"},
		{"zipCode":"1920003","stateKana":"トウキョウト","cityKana":"ハチオウジシ","streetKana":"タンギマチ","state":"東京都","city":"八王子市","street":"丹木町"},
		{"zipCode":"1800002","stateKana":"トウキョウト","cityKana":"ムサシノシ","streetKana":"キチジョウジヒガシチョウ","state":"東京都","city":"武蔵野市","street":"吉祥寺東町"},
		{"zipCode":"1980025","stateKana":"トウキョウト","cityKana":"オウメシ","streetKana":"スエヒロチョウ","state":"東京都","city":"青梅市","street":"末広町"},
		{"zipCode":"1830011","stateKana":"トウキョウト","cityKana":"フチュウシ","streetKana":"シライトダイ","state":"東京都","city":"府中市","street":"白糸台"},
		{"zipCode":"1960002","stateKana":"トウキョウト","cityKana":"アキシマシ","streetKana":"ハイジマチョウ","state":"東京都","city":"昭島市","street":"拝島町"},
		{"zipCode":"1940005","stateKana":"トウキョウト","cityKana":"マチダシ","streetKana":"ミナミマチダ","state":"東京都","city":"町田市","street":"南町田"},
		{"zipCode":"1890026","stateKana":"トウキョウト","cityKana":"ヒガシムラヤマシ","streetKana":"タマコチョウ","state":"東京都","city":"東村山市","street":"多摩湖町"},
		{"zipCode":"1970012","stateKana":"トウキョウト","cityKana":"フッサシ","streetKana":"カミダイラ","state":"東京都","city":"福生市","street":"加美平"},
		{"zipCode":"2070014","stateKana":"トウキョウト","cityKana":"ヒガシヤマトシ","streetKana":"ナンガイ","state":"東京都","city":"東大和市","street":"南街"},
		{"zipCode":"2080022","stateKana":"トウキョウト","cityKana":"ムサシムラヤマシ","streetKana":"エノキ","state":"東京都","city":"武蔵村山市","street":"榎"},
		{"zipCode":"2060803","stateKana":"トウキョウト","cityKana":"イナギシ","streetKana":"コウヨウダイ","state":"東京都","city":"稲城市","street":"向陽台"},
		{"zipCode":"2020002","stateKana":"トウキョウト","cityKana":"ニシトウキョウシ","streetKana":"ヒバリガオカキタ","state":"東京都","city":"西東京市","street":"ひばりが丘北"},
		{"zipCode":"2210053","stateKana":"カナガワケン","cityKana":"ヨコハマシカナガワク","streetKana":"ハシモトチョウ","state":"神奈川県","city":"横浜市神奈川区","street":"橋本町"},
		{"zipCode":"2310001","stateKana":"カナガワケン","cityKana":"ヨコハマシナカク","streetKana":"シンコウ","state":"神奈川県","city":"横浜市中区","street":"新港"},
		{"zipCode":"2310843","stateKana":"カナガワケン","cityKana":"ヨコハマシナカク","streetKana":"ホンゴウチョウ","state":"神奈川県","city":"横浜市中区","street":"本郷町"},
		{"zipCode":"2320026","stateKana":"カナガワケン","cityKana":"ヨコハマシミナミク","streetKana":"フタバチョウ","state":"神奈川県","city":"横浜市南区","street":"二葉町"},
		{"zipCode":"2350036","stateKana":"カナガワケン","cityKana":"ヨコハマシイソゴク","streetKana":"ナカハラ","state":"神奈川県","city":"横浜市磯子区","street":"中原"},
		{"zipCode":"2360057","stateKana":"カナガワケン","cityKana":"ヨコハマシカナザワク","streetKana":"ノウケンダイ","state":"神奈川県","city":"横浜市金沢区","street":"能見台"},
		{"zipCode":"2260019","stateKana":"カナガワケン","cityKana":"ヨコハマシミドリク","streetKana":"ナカヤマ","state":"神奈川県","city":"横浜市緑区","street":"中山"},
		{"zipCode":"2250003","stateKana":"カナガワケン","cityKana":"ヨコハマシアオバク","streetKana":"シンイシカワ","state":"神奈川県","city":"横浜市青葉区","street":"新石川"},
		{"zipCode":"2120024","stateKana":"カナガワケン","cityKana":"カワサキシサイワイク","streetKana":"ツカゴシ","state":"神奈川県","city":"川崎市幸区","street":"塚越"},
		{"zipCode":"2110068","stateKana":"カナガワケン","cityKana":"カワサキシナカハラク","streetKana":"コスギゴテンチョウ","state":"神奈川県","city":"川崎市中原区","street":"小杉御殿町"},
		{"zipCode":"2160022","stateKana":"カナガワケン","cityKana":"カワサキシミヤマエク","streetKana":"タイラ","state":"神奈川県","city":"川崎市宮前区","street":"平"},
		{"zipCode":"2520223","stateKana":"カナガワケン","cityKana":"サガミハラシチュウオウク","streetKana":"マツガオカ","state":"神奈川県","city":"相模原市中央区","street":"松が丘"},
		{"zipCode":"2390828","stateKana":"カナガワケン","cityKana":"ヨコスカシ","streetKana":"クビリ","state":"神奈川県","city":"横須賀市","street":"久比里"},
		{"zipCode":"2390807","stateKana":"カナガワケン","cityKana":"ヨコスカシ","streetKana":"ネギシチョウ","state":"神奈川県","city":"横須賀市","street":"根岸町"},
		{"zipCode":"2480006","stateKana":"カナガワケン","cityKana":"カマクラシ","streetKana":"コマチ","state":"神奈川県","city":"鎌倉市","street":"小町"},
		{"zipCode":"2510035","stateKana":"カナガワケン","cityKana":"フジサワシ","streetKana":"カタセカイガン","state":"神奈川県","city":"藤沢市","street":"片瀬海岸"},
		{"zipCode":"2520814","stateKana":"カナガワケン","cityKana":"フジサワシ","streetKana":"テンジンチョウ","state":"神奈川県","city":"藤沢市","street":"天神町"},
		{"zipCode":"2530064","stateKana":"カナガワケン","cityKana":"チガサキシ","streetKana":"ヤナギシマ","state":"神奈川県","city":"茅ヶ崎市","street":"柳島"},
		{"zipCode":"2430018","stateKana":"カナガワケン","cityKana":"アツギシ","streetKana":"ナカチョウ","state":"神奈川県","city":"厚木市","street":"中町"},
		{"zipCode":"2420012","stateKana":"カナガワケン","cityKana":"ヤマトシ","streetKana":"フカミヒガシ","state":"神奈川県","city":"大和市","street":"深見東"},
		{"zipCode":"2591126","stateKana":"カナガワケン","cityKana":"イセハラシ","streetKana":"ヌマメ","state":"神奈川県","city":"伊勢原市","street":"沼目"},
		{"zipCode":"2520024","stateKana":"カナガワケン","cityKana":"ザマシ","streetKana":"イリヤ","state":"神奈川県","city":"座間市","street":"入谷"},
		{"zipCode":"2590301","stateKana":"カナガワケン","cityKana":"アシガラシモグンユガワラマチ","streetKana":"チュウオウ","state":"神奈川県","city":"足柄下郡湯河原町","street":"中央"},
		{"zipCode":"9503114","stateKana":"ニイガタケン","cityKana":"ニイガタシキタク","streetKana":"ナメトコロ","state":"新潟県","city":"新潟市北区","street":"名目所"},
		{"zipCode":"9500852","stateKana":"ニイガタケン","cityKana":"ニイガタシヒガシク","streetKana":"イシヤマ","state":"新潟県","city":"新潟市東区","street":"石山"},
		{"zipCode":"9500885","stateKana":"ニイガタケン","cityKana":"ニイガタシヒガシク","streetKana":"シモキド","state":"新潟県","city":"新潟市東区","street":"下木戸"},
		{"zipCode":"9500804","stateKana":"ニイガタケン","cityKana":"ニイガタシヒガシク","streetKana":"ホンジョ","state":"新潟県","city":"新潟市東区","street":"本所"},
		{"zipCode":"9500908","stateKana":"ニイガタケン","cityKana":"ニイガタシチュウオウク","streetKana":"サイワイニシ","state":"新潟県","city":"新潟市中央区","street":"幸西"},
		{"zipCode":"9518016","stateKana":"ニイガタケン","cityKana":"ニイガタシチュウオウク","streetKana":"タマチ","state":"新潟県","city":"新潟市中央区","street":"田町"},
		{"zipCode":"9500122","stateKana":"ニイガタケン","cityKana":"ニイガタシコウナンク","streetKana":"イナバ","state":"新潟県","city":"新潟市江南区","street":"稲葉"},
		{"zipCode":"9560805","stateKana":"ニイガタケン","cityKana":"ニイガタシアキハク","streetKana":"ナカノ","state":"新潟県","city":"新潟市秋葉区","street":"中野"},
		{"zipCode":"9501134","stateKana":"ニイガタケン","cityKana":"ニイガタシミナミク","streetKana":"アマノ","state":"新潟県","city":"新潟市南区","street":"天野"},
		{"zipCode":"9502173","stateKana":"ニイガタケン","cityKana":"ニイガタシニシク","streetKana":"イカラシ３ノチョウヒガシ","state":"新潟県","city":"新潟市西区","street":"五十嵐三の町東"},
		{"zipCode":"9502053","stateKana":"ニイガタケン","cityKana":"ニイガタシニシク","streetKana":"テラオマエドオリ","state":"新潟県","city":"新潟市西区","street":"寺尾前通"},
		{"zipCode":"9400025","stateKana":"ニイガタケン","cityKana":"ナガオカシ","streetKana":"イズミ","state":"新潟県","city":"長岡市","street":"泉"},
		{"zipCode":"9402035","stateKana":"ニイガタケン","cityKana":"ナガオカシ","streetKana":"セキハラマチ","state":"新潟県","city":"長岡市","street":"関原町"},
		{"zipCode":"9400856","stateKana":"ニイガタケン","cityKana":"ナガオカシ","streetKana":"ミサワ","state":"新潟県","city":"長岡市","street":"美沢"},
		{"zipCode":"9400827","stateKana":"ニイガタケン","cityKana":"ナガオカシ","streetKana":"ユウキュウチョウ","state":"新潟県","city":"長岡市","street":"悠久町"},
		{"zipCode":"9570067","stateKana":"ニイガタケン","cityKana":"シバタシ","streetKana":"ナカソネチョウ","state":"新潟県","city":"新発田市","street":"中曽根町"},
		{"zipCode":"9440014","stateKana":"ニイガタケン","cityKana":"ミョウコウシ","streetKana":"セキガワチョウ","state":"新潟県","city":"妙高市","street":"関川町"},
		{"zipCode":"9430824","stateKana":"ニイガタケン","cityKana":"ジョウエツシ","streetKana":"キタシロチョウ","state":"新潟県","city":"上越市","street":"北城町"},
		{"zipCode":"9430834","stateKana":"ニイガタケン","cityKana":"ジョウエツシ","streetKana":"ニシシロチョウ","state":"新潟県","city":"上越市","street":"西城町"},
		{"zipCode":"9300817","stateKana":"トヤマケン","cityKana":"トヤマシ","streetKana":"シモオクイ","state":"富山県","city":"富山市","street":"下奥井"},
		{"zipCode":"9398205","stateKana":"トヤマケン","cityKana":"トヤマシ","streetKana":"シンネヅカマチ","state":"富山県","city":"富山市","street":"新根塚町"},
		{"zipCode":"9300007","stateKana":"トヤマケン","cityKana":"トヤマシ","streetKana":"タカラマチ","state":"富山県","city":"富山市","street":"宝町"},
		{"zipCode":"9302239","stateKana":"トヤマケン","cityKana":"トヤマシ","streetKana":"ツバメノ","state":"富山県","city":"富山市","street":"つばめ野"},
		{"zipCode":"9300975","stateKana":"トヤマケン","cityKana":"トヤマシ","streetKana":"ニシナガエ","state":"富山県","city":"富山市","street":"西長江"},
		{"zipCode":"9300087","stateKana":"トヤマケン","cityKana":"トヤマシ","streetKana":"ヤスノヤチョウ","state":"富山県","city":"富山市","street":"安野屋町"},
		{"zipCode":"9391364","stateKana":"トヤマケン","cityKana":"トナミシ","streetKana":"ユタカマチ","state":"富山県","city":"砺波市","street":"豊町"},
		{"zipCode":"9390363","stateKana":"トヤマケン","cityKana":"イミズシ","streetKana":"ナカタイコウヤマ","state":"富山県","city":"射水市","street":"中太閤山"},
		{"zipCode":"9218042","stateKana":"イシカワケン","cityKana":"カナザワシ","streetKana":"イズミホンマチ","state":"石川県","city":"金沢市","street":"泉本町"},
		{"zipCode":"9208214","stateKana":"イシカワケン","cityKana":"カナザワシ","streetKana":"ナオエミナミ","state":"石川県","city":"金沢市","street":"直江南"},
		{"zipCode":"9200348","stateKana":"イシカワケン","cityKana":"カナザワシ","streetKana":"マツムラ","state":"石川県","city":"金沢市","street":"松村"},
		{"zipCode":"9200842","stateKana":"イシカワケン","cityKana":"カナザワシ","streetKana":"モトマチ","state":"石川県","city":"金沢市","street":"元町"},
		{"zipCode":"9240863","stateKana":"イシカワケン","cityKana":"ハクサンシ","streetKana":"バクロ","state":"石川県","city":"白山市","street":"博労"},
		{"zipCode":"9218845","stateKana":"イシカワケン","cityKana":"ノノイチシ","streetKana":"タヘイジ","state":"石川県","city":"野々市市","street":"太平寺"},
		{"zipCode":"9100068","stateKana":"フクイケン","cityKana":"フクイシ","streetKana":"フナバシシン","state":"福井県","city":"福井市","street":"舟橋新"},
		{"zipCode":"9191279","stateKana":"フクイケン","cityKana":"ツルガシ","streetKana":"シラキ","state":"福井県","city":"敦賀市","street":"白木"},
		{"zipCode":"9100235","stateKana":"フクイケン","cityKana":"サカイシ","streetKana":"マルオカチョウタツミチョウ","state":"福井県","city":"坂井市","street":"丸岡町巽町"},
		{"zipCode":"9130042","stateKana":"フクイケン","cityKana":"サカイシ","streetKana":"ミクニチョウチュウオウ","state":"福井県","city":"坂井市","street":"三国町中央"},
		{"zipCode":"9160156","stateKana":"フクイケン","cityKana":"ニュウグンエチゼンチョウ","streetKana":"ヒガシウチゴオリ","state":"福井県","city":"丹生郡越前町","street":"東内郡"},
		{"zipCode":"4000062","stateKana":"ヤマナシケン","cityKana":"コウフシ","streetKana":"イケダ","state":"山梨県","city":"甲府市","street":"池田"},
		{"zipCode":"4000047","stateKana":"ヤマナシケン","cityKana":"コウフシ","streetKana":"トクギョウ","state":"山梨県","city":"甲府市","street":"徳行"},
		{"zipCode":"4030012","stateKana":"ヤマナシケン","cityKana":"フジヨシダシ","streetKana":"アサヒ","state":"山梨県","city":"富士吉田市","street":"旭"},
		{"zipCode":"4020054","stateKana":"ヤマナシケン","cityKana":"ツルシ","streetKana":"タハラ","state":"山梨県","city":"都留市","street":"田原"},
		{"zipCode":"3950013","stateKana":"ナガノケン","cityKana":"イイダシ","streetKana":"コデンマチョウ","state":"長野県","city":"飯田市","street":"小伝馬町"},
		{"zipCode":"3950083","stateKana":"ナガノケン","cityKana":"イイダシ","streetKana":"ニシキチョウ","state":"長野県","city":"飯田市","street":"錦町"},
		{"zipCode":"3820028","stateKana":"ナガノケン","cityKana":"スザカシ","streetKana":"ガリュウ","state":"長野県","city":"須坂市","street":"臥竜"},
		{"zipCode":"5011182","stateKana":"ギフケン","cityKana":"ギフシ","streetKana":"アキサワ","state":"岐阜県","city":"岐阜市","street":"秋沢"},
		{"zipCode":"5012535","stateKana":"ギフケン","cityKana":"ギフシ","streetKana":"イシハラ","state":"岐阜県","city":"岐阜市","street":"石原","chomeRange":"1-3"},
		{"zipCode":"5020014","stateKana":"ギフケン","cityKana":"ギフシ","streetKana":"オブサミドリマチ","state":"岐阜県","city":"岐阜市","street":"雄総緑町"},
		{"zipCode":"5020937","stateKana":"ギフケン","cityKana":"ギフシ","streetKana":"カヤバチョウ","state":"岐阜県","city":"岐阜市","street":"萱場町"},
		{"zipCode":"5008145","stateKana":"ギフケン","cityKana":"ギフシ","streetKana":"クモイチョウ","state":"岐阜県","city":"岐阜市","street":"雲井町"},
		{"zipCode":"5020934","stateKana":"ギフケン","cityKana":"ギフシ","streetKana":"ダイフクチョウ","state":"岐阜県","city":"岐阜市","street":"大福町"},
		{"zipCode":"5008175","stateKana":"ギフケン","cityKana":"ギフシ","streetKana":"ナガズミチョウ","state":"岐阜県","city":"岐阜市","street":"長住町"},
		{"zipCode":"5020082","stateKana":"ギフケン","cityKana":"ギフシ","streetKana":"ナガラヒガシ","state":"岐阜県","city":"岐阜市","street":"長良東"},
		{"zipCode":"5020916","stateKana":"ギフケン","cityKana":"ギフシ","streetKana":"ニシナカジマ","state":"岐阜県","city":"岐阜市","street":"西中島"},
		{"zipCode":"5008257","stateKana":"ギフケン","cityKana":"ギフシ","streetKana":"ヒガシカワテ","state":"岐阜県","city":"岐阜市","street":"東川手"},
		{"zipCode":"5016121","stateKana":"ギフケン","cityKana":"ギフシ","streetKana":"ヤナイヅチョウシモサバニシ","state":"岐阜県","city":"岐阜市","street":"柳津町下佐波西"},
		{"zipCode":"5030821","stateKana":"ギフケン","cityKana":"オオガキシ","streetKana":"サナエチョウ","state":"岐阜県","city":"大垣市","street":"早苗町"},
		{"zipCode":"5030965","stateKana":"ギフケン","cityKana":"オオガキシ","streetKana":"タギシマ","state":"岐阜県","city":"大垣市","street":"多芸島"},
		{"zipCode":"5032223","stateKana":"ギフケン","cityKana":"オオガキシ","streetKana":"ヤミチチョウ","state":"岐阜県","city":"大垣市","street":"矢道町"},
		{"zipCode":"5070042","stateKana":"ギフケン","cityKana":"タジミシ","streetKana":"マエバタチョウ","state":"岐阜県","city":"多治見市","street":"前畑町"},
		{"zipCode":"5013232","stateKana":"ギフケン","cityKana":"セキシ","streetKana":"サクラホンマチ","state":"岐阜県","city":"関市","street":"桜本町"},
		{"zipCode":"5013946","stateKana":"ギフケン","cityKana":"セキシ","streetKana":"ツボカワダイ","state":"岐阜県","city":"関市","street":"津保川台"},
		{"zipCode":"5013802","stateKana":"ギフケン","cityKana":"セキシ","streetKana":"ワカクサドオリ","state":"岐阜県","city":"関市","street":"若草通"},
		{"zipCode":"5050036","stateKana":"ギフケン","cityKana":"ミノカモシ","streetKana":"ヤマテチョウ","state":"岐阜県","city":"美濃加茂市","street":"山手町"},
		{"zipCode":"5095124","stateKana":"ギフケン","cityKana":"トキシ","streetKana":"トキグチナカマチ","state":"岐阜県","city":"土岐市","street":"土岐口中町"},
		{"zipCode":"5040822","stateKana":"ギフケン","cityKana":"カカミガハラシ","streetKana":"ソハラサカエマチ","state":"岐阜県","city":"各務原市","street":"蘇原栄町"},
		{"zipCode":"5090214","stateKana":"ギフケン","cityKana":"カニシ","streetKana":"ヒロミ","state":"岐阜県","city":"可児市","street":"広見"},
		{"zipCode":"5010205","stateKana":"ギフケン","cityKana":"ミズホシ","streetKana":"ババコシロマチ","state":"岐阜県","city":"瑞穂市","street":"馬場小城町"},
		{"zipCode":"5014211","stateKana":"ギフケン","cityKana":"グジョウシ","streetKana":"ハチマンチョウナカツボ","state":"岐阜県","city":"郡上市","street":"八幡町中坪"},
		{"zipCode":"5032113","stateKana":"ギフケン","cityKana":"フワグンタルイチョウ","streetKana":"シミズ","state":"岐阜県","city":"不破郡垂井町","street":"清水"},
		{"zipCode":"5010446","stateKana":"ギフケン","cityKana":"モトスグンキタガタチョウ","streetKana":"ハシラモト","state":"岐阜県","city":"本巣郡北方町","street":"柱本"},
		{"zipCode":"4240809","stateKana":"シズオカケン","cityKana":"シズオカシシミズク","streetKana":"テンジン","state":"静岡県","city":"静岡市清水区","street":"天神"},
		{"zipCode":"4300929","stateKana":"シズオカケン","cityKana":"ハママツシナカク","streetKana":"チュウオウ","state":"静岡県","city":"浜松市中区","street":"中央"},
		{"zipCode":"4311104","stateKana":"シズオカケン","cityKana":"ハママツシニシク","streetKana":"サクラダイ","state":"静岡県","city":"浜松市西区","street":"桜台"},
		{"zipCode":"4110031","stateKana":"シズオカケン","cityKana":"ミシマシ","streetKana":"コウバラチョウ","state":"静岡県","city":"三島市","street":"幸原町"},
		{"zipCode":"4140046","stateKana":"シズオカケン","cityKana":"イトウシ","streetKana":"オオハラ","state":"静岡県","city":"伊東市","street":"大原"},
		{"zipCode":"4160921","stateKana":"シズオカケン","cityKana":"フジシ","streetKana":"ミトジマ","state":"静岡県","city":"富士市","street":"水戸島"},
		{"zipCode":"4250081","stateKana":"シズオカケン","cityKana":"ヤイヅシ","streetKana":"ダイエイチョウ","state":"静岡県","city":"焼津市","street":"大栄町"},
		{"zipCode":"4360028","stateKana":"シズオカケン","cityKana":"カケガワシ","streetKana":"カメノコウ","state":"静岡県","city":"掛川市","street":"亀の甲"},
		{"zipCode":"4360054","stateKana":"シズオカケン","cityKana":"カケガワシ","streetKana":"シロニシ","state":"静岡県","city":"掛川市","street":"城西"},
		{"zipCode":"4260034","stateKana":"シズオカケン","cityKana":"フジエダシ","streetKana":"エキマエ","state":"静岡県","city":"藤枝市","street":"駅前"},
		{"zipCode":"4260065","stateKana":"シズオカケン","cityKana":"フジエダシ","streetKana":"スエヒロ","state":"静岡県","city":"藤枝市","street":"末広"},
		{"zipCode":"4260067","stateKana":"シズオカケン","cityKana":"フジエダシ","streetKana":"マエジマ","state":"静岡県","city":"藤枝市","street":"前島"},
		{"zipCode":"4101115","stateKana":"シズオカケン","cityKana":"スソノシ","streetKana":"センプクガオカ","state":"静岡県","city":"裾野市","street":"千福が丘"},
		{"zipCode":"4640837","stateKana":"アイチケン","cityKana":"ナゴヤシチクサク","streetKana":"オカウエチョウ","state":"愛知県","city":"名古屋市千種区","street":"丘上町"},
		{"zipCode":"4640087","stateKana":"アイチケン","cityKana":"ナゴヤシチクサク","streetKana":"セイメイヤマ","state":"愛知県","city":"名古屋市千種区","street":"清明山"},
		{"zipCode":"4610049","stateKana":"アイチケン","cityKana":"ナゴヤシヒガシク","streetKana":"コデキ","state":"愛知県","city":"名古屋市東区","street":"古出来"},
		{"zipCode":"4620836","stateKana":"アイチケン","cityKana":"ナゴヤシキタク","streetKana":"オオスギチョウ","state":"愛知県","city":"名古屋市北区","street":"大杉町"},
		{"zipCode":"4620865","stateKana":"アイチケン","cityKana":"ナゴヤシキタク","streetKana":"シモイイダチョウ","state":"愛知県","city":"名古屋市北区","street":"下飯田町"},
		{"zipCode":"4620819","stateKana":"アイチケン","cityKana":"ナゴヤシキタク","streetKana":"ヘイアン","state":"愛知県","city":"名古屋市北区","street":"平安"},
		{"zipCode":"4520821","stateKana":"アイチケン","cityKana":"ナゴヤシニシク","streetKana":"カミオタイ","state":"愛知県","city":"名古屋市西区","street":"上小田井"},
		{"zipCode":"4530853","stateKana":"アイチケン","cityKana":"ナゴヤシナカムラク","streetKana":"ウシダトオリ","state":"愛知県","city":"名古屋市中村区","street":"牛田通"},
		{"zipCode":"4530031","stateKana":"アイチケン","cityKana":"ナゴヤシナカムラク","streetKana":"シントミチョウ","state":"愛知県","city":"名古屋市中村区","street":"新富町"},
		{"zipCode":"4530063","stateKana":"アイチケン","cityKana":"ナゴヤシナカムラク","streetKana":"ヒガシジュクチョウ","state":"愛知県","city":"名古屋市中村区","street":"東宿町"},
		{"zipCode":"4530822","stateKana":"アイチケン","cityKana":"ナゴヤシナカムラク","streetKana":"メイセイトオリ","state":"愛知県","city":"名古屋市中村区","street":"名西通"},
		{"zipCode":"4660043","stateKana":"アイチケン","cityKana":"ナゴヤシショウワク","streetKana":"イケバタチョウ","state":"愛知県","city":"名古屋市昭和区","street":"池端町"},
		{"zipCode":"4660041","stateKana":"アイチケン","cityKana":"ナゴヤシショウワク","streetKana":"デグチチョウ","state":"愛知県","city":"名古屋市昭和区","street":"出口町"},
		{"zipCode":"4660024","stateKana":"アイチケン","cityKana":"ナゴヤシショウワク","streetKana":"ヤマトチョウ","state":"愛知県","city":"名古屋市昭和区","street":"大和町"},
		{"zipCode":"4670805","stateKana":"アイチケン","cityKana":"ナゴヤシミズホク","streetKana":"サクラミチョウ","state":"愛知県","city":"名古屋市瑞穂区","street":"桜見町"},
		{"zipCode":"4670011","stateKana":"アイチケン","cityKana":"ナゴヤシミズホク","streetKana":"ハギヤマチョウ","state":"愛知県","city":"名古屋市瑞穂区","street":"萩山町"},
		{"zipCode":"4540034","stateKana":"アイチケン","cityKana":"ナゴヤシナカガワク","streetKana":"ゴニョシチョウ","state":"愛知県","city":"名古屋市中川区","street":"五女子町"},
		{"zipCode":"4540961","stateKana":"アイチケン","cityKana":"ナゴヤシナカガワク","streetKana":"トダメイセイ","state":"愛知県","city":"名古屋市中川区","street":"戸田明正"},
		{"zipCode":"4540052","stateKana":"アイチケン","cityKana":"ナゴヤシナカガワク","streetKana":"ハナヅカチョウ","state":"愛知県","city":"名古屋市中川区","street":"花塚町"},
		{"zipCode":"4550073","stateKana":"アイチケン","cityKana":"ナゴヤシミナトク","streetKana":"カワニシドオリ","state":"愛知県","city":"名古屋市港区","street":"川西通"},
		{"zipCode":"4550851","stateKana":"アイチケン","cityKana":"ナゴヤシミナトク","streetKana":"ヒガシチャヤ","state":"愛知県","city":"名古屋市港区","street":"東茶屋"},
		{"zipCode":"4570837","stateKana":"アイチケン","cityKana":"ナゴヤシミナミク","streetKana":"カフクチョウ","state":"愛知県","city":"名古屋市南区","street":"加福町"},
		{"zipCode":"4570072","stateKana":"アイチケン","cityKana":"ナゴヤシミナミク","streetKana":"テラベドオリ","state":"愛知県","city":"名古屋市南区","street":"寺部通"},
		{"zipCode":"4570045","stateKana":"アイチケン","cityKana":"ナゴヤシミナミク","streetKana":"マツシロチョウ","state":"愛知県","city":"名古屋市南区","street":"松城町"},
		{"zipCode":"4630013","stateKana":"アイチケン","cityKana":"ナゴヤシモリヤマク","streetKana":"オバタナカ","state":"愛知県","city":"名古屋市守山区","street":"小幡中"},
		{"zipCode":"4580024","stateKana":"アイチケン","cityKana":"ナゴヤシミドリク","streetKana":"オザキヤマ","state":"愛知県","city":"名古屋市緑区","street":"尾崎山"},
		{"zipCode":"4440832","stateKana":"アイチケン","cityKana":"オカザキシ","streetKana":"ハネヒガシマチ","state":"愛知県","city":"岡崎市","street":"羽根東町"},
		{"zipCode":"4440016","stateKana":"アイチケン","cityKana":"オカザキシ","streetKana":"モトカケマチ","state":"愛知県","city":"岡崎市","street":"元欠町"},
		{"zipCode":"4910917","stateKana":"アイチケン","cityKana":"イチノミヤシ","streetKana":"ショウワ","state":"愛知県","city":"一宮市","street":"昭和"},
		{"zipCode":"4910914","stateKana":"アイチケン","cityKana":"イチノミヤシ","streetKana":"ハナイケ","state":"愛知県","city":"一宮市","street":"花池"},
		{"zipCode":"4910843","stateKana":"アイチケン","cityKana":"イチノミヤシ","streetKana":"ヤナギドチョウ","state":"愛知県","city":"一宮市","street":"柳戸町"},
		{"zipCode":"4890804","stateKana":"アイチケン","cityKana":"セトシ","streetKana":"キョウマチ","state":"愛知県","city":"瀬戸市","street":"京町"},
		{"zipCode":"4890986","stateKana":"アイチケン","cityKana":"セトシ","streetKana":"ミナミヤマチョウ","state":"愛知県","city":"瀬戸市","street":"南山町"},
		{"zipCode":"4750028","stateKana":"アイチケン","cityKana":"ハンダシ","streetKana":"カメザキアイオイチョウ","state":"愛知県","city":"半田市","street":"亀崎相生町"},
		{"zipCode":"4750007","stateKana":"アイチケン","cityKana":"ハンダシ","streetKana":"ニシオオヤチチョウ","state":"愛知県","city":"半田市","street":"西大矢知町"},
		{"zipCode":"4860846","stateKana":"アイチケン","cityKana":"カスガイシ","streetKana":"アサミヤチョウ","state":"愛知県","city":"春日井市","street":"朝宮町"},
		{"zipCode":"4860936","stateKana":"アイチケン","cityKana":"カスガイシ","streetKana":"チョウダチョウ","state":"愛知県","city":"春日井市","street":"町田町"},
		{"zipCode":"4960846","stateKana":"アイチケン","cityKana":"ツシマシ","streetKana":"ヒガシナカジチョウ","state":"愛知県","city":"津島市","street":"東中地町"},
		{"zipCode":"4470038","stateKana":"アイチケン","cityKana":"ヘキナンシ","streetKana":"アラコマチ","state":"愛知県","city":"碧南市","street":"荒子町"},
		{"zipCode":"4470833","stateKana":"アイチケン","cityKana":"ヘキナンシ","streetKana":"ゴンゲンマチ","state":"愛知県","city":"碧南市","street":"権現町"},
		{"zipCode":"4470855","stateKana":"アイチケン","cityKana":"ヘキナンシ","streetKana":"テンノウマチ","state":"愛知県","city":"碧南市","street":"天王町"},
		{"zipCode":"4470079","stateKana":"アイチケン","cityKana":"ヘキナンシ","streetKana":"マツバラマチ","state":"愛知県","city":"碧南市","street":"松原町"},
		{"zipCode":"4480005","stateKana":"アイチケン","cityKana":"カリヤシ","streetKana":"イマガワチョウ","state":"愛知県","city":"刈谷市","street":"今川町"},
		{"zipCode":"4480815","stateKana":"アイチケン","cityKana":"カリヤシ","streetKana":"ナカジマチョウ","state":"愛知県","city":"刈谷市","street":"中島町"},
		{"zipCode":"4710031","stateKana":"アイチケン","cityKana":"トヨタシ","streetKana":"アサヒマチ","state":"愛知県","city":"豊田市","street":"朝日町"},
		{"zipCode":"4710017","stateKana":"アイチケン","cityKana":"トヨタシ","streetKana":"テラベチョウ","state":"愛知県","city":"豊田市","street":"寺部町"},
		{"zipCode":"4700353","stateKana":"アイチケン","cityKana":"トヨタシ","streetKana":"ホミガオカ","state":"愛知県","city":"豊田市","street":"保見ケ丘"},
		{"zipCode":"4710849","stateKana":"アイチケン","cityKana":"トヨタシ","streetKana":"ミヤマチョウ","state":"愛知県","city":"豊田市","street":"美山町"},
		{"zipCode":"4460072","stateKana":"アイチケン","cityKana":"アンジョウシ","streetKana":"スミヨシチョウ","state":"愛知県","city":"安城市","street":"住吉町"},
		{"zipCode":"4840806","stateKana":"アイチケン","cityKana":"イヌヤマシ","streetKana":"ハグロアサヒ","state":"愛知県","city":"犬山市","street":"羽黒朝日"},
		{"zipCode":"4928410","stateKana":"アイチケン","cityKana":"イナザワシ","streetKana":"キタジマ","state":"愛知県","city":"稲沢市","street":"北島"},
		{"zipCode":"4740035","stateKana":"アイチケン","cityKana":"オオブシ","streetKana":"エバタチョウ","state":"愛知県","city":"大府市","street":"江端町"},
		{"zipCode":"4780024","stateKana":"アイチケン","cityKana":"チタシ","streetKana":"ミナミカスヤ","state":"愛知県","city":"知多市","street":"南粕谷"},
		{"zipCode":"4700133","stateKana":"アイチケン","cityKana":"ニッシンシ","streetKana":"ウメモリダイ","state":"愛知県","city":"日進市","street":"梅森台"},
		{"zipCode":"4413407","stateKana":"アイチケン","cityKana":"タハラシ","streetKana":"コウサキ","state":"愛知県","city":"田原市","street":"光崎"},
		{"zipCode":"4980016","stateKana":"アイチケン","cityKana":"ヤトミシ","streetKana":"コジマチョウ","state":"愛知県","city":"弥富市","street":"小島町"},
		{"zipCode":"4901425","stateKana":"アイチケン","cityKana":"ヤトミシ","streetKana":"ヒガシシジミ","state":"愛知県","city":"弥富市","street":"東蜆"},
		{"zipCode":"4700152","stateKana":"アイチケン","cityKana":"アイチグントウゴウチョウ","streetKana":"キタヤマダイ","state":"愛知県","city":"愛知郡東郷町","street":"北山台"},
		{"zipCode":"4800145","stateKana":"アイチケン","cityKana":"ニワグンオオグチチョウ","streetKana":"マル","state":"愛知県","city":"丹羽郡大口町","street":"丸"},
		{"zipCode":"4970030","stateKana":"アイチケン","cityKana":"アマグンカニエチョウ","streetKana":"タカラ","state":"愛知県","city":"海部郡蟹江町","street":"宝"},
		{"zipCode":"4702384","stateKana":"アイチケン","cityKana":"チタグンタケトヨチョウ","streetKana":"アオキガオカ","state":"愛知県","city":"知多郡武豊町","street":"青木ケ丘"},
		{"zipCode":"5140004","stateKana":"ミエケン","cityKana":"ツシ","streetKana":"サカエマチ","state":"三重県","city":"津市","street":"栄町"},
		{"zipCode":"5160037","stateKana":"ミエケン","cityKana":"イセシ","streetKana":"イワブチ","state":"三重県","city":"伊勢市","street":"岩渕"},
		{"zipCode":"5130027","stateKana":"ミエケン","cityKana":"スズカシ","streetKana":"オカダ","state":"三重県","city":"鈴鹿市","street":"岡田"},
		{"zipCode":"5100243","stateKana":"ミエケン","cityKana":"スズカシ","streetKana":"シロコ","state":"三重県","city":"鈴鹿市","street":"白子"},
		{"zipCode":"5130046","stateKana":"ミエケン","cityKana":"スズカシ","streetKana":"ミナミホリエ","state":"三重県","city":"鈴鹿市","street":"南堀江"},
		{"zipCode":"5202275","stateKana":"シガケン","cityKana":"オオツシ","streetKana":"エダ","state":"滋賀県","city":"大津市","street":"枝"},
		{"zipCode":"5200807","stateKana":"シガケン","cityKana":"オオツシ","streetKana":"マツモト","state":"滋賀県","city":"大津市","street":"松本"},
		{"zipCode":"5220051","stateKana":"シガケン","cityKana":"ヒコネシ","streetKana":"ナカヤブ","state":"滋賀県","city":"彦根市","street":"中藪"},
		{"zipCode":"5250033","stateKana":"シガケン","cityKana":"クサツシ","streetKana":"ヒガシクサツ","state":"滋賀県","city":"草津市","street":"東草津"},
		{"zipCode":"5280058","stateKana":"シガケン","cityKana":"コウカシ","streetKana":"ミナクチチョウキタイズミ","state":"滋賀県","city":"甲賀市","street":"水口町北泉"},
		{"zipCode":"5203237","stateKana":"シガケン","cityKana":"コナンシ","streetKana":"コウジブクロニシ","state":"滋賀県","city":"湖南市","street":"柑子袋西"},
		{"zipCode":"6170814","stateKana":"キョウトフ","cityKana":"ナガオカキョウシ","streetKana":"イマザト","state":"京都府","city":"長岡京市","street":"今里"},
		{"zipCode":"5340015","stateKana":"オオサカフ","cityKana":"オオサカシミヤコジマク","streetKana":"ゼンゲンジチョウ","state":"大阪府","city":"大阪市都島区","street":"善源寺町"},
		{"zipCode":"5500011","stateKana":"オオサカフ","cityKana":"オオサカシニシク","streetKana":"アワザ","state":"大阪府","city":"大阪市西区","street":"阿波座"},
		{"zipCode":"5510002","stateKana":"オオサカフ","cityKana":"オオサカシタイショウク","streetKana":"サンゲンヤヒガシ","state":"大阪府","city":"大阪市大正区","street":"三軒家東"},
		{"zipCode":"5430045","stateKana":"オオサカフ","cityKana":"オオサカシテンノウジク","streetKana":"テラダチョウ","state":"大阪府","city":"大阪市天王寺区","street":"寺田町"},
		{"zipCode":"5550032","stateKana":"オオサカフ","cityKana":"オオサカシニシヨドガワク","streetKana":"オオワダ","state":"大阪府","city":"大阪市西淀川区","street":"大和田"},
		{"zipCode":"5370023","stateKana":"オオサカフ","cityKana":"オオサカシヒガシナリク","streetKana":"タマツ","state":"大阪府","city":"大阪市東成区","street":"玉津"},
		{"zipCode":"5350013","stateKana":"オオサカフ","cityKana":"オオサカシアサヒク","streetKana":"モリショウジ","state":"大阪府","city":"大阪市旭区","street":"森小路"},
		{"zipCode":"5580043","stateKana":"オオサカフ","cityKana":"オオサカシスミヨシク","streetKana":"スミエ","state":"大阪府","city":"大阪市住吉区","street":"墨江"},
		{"zipCode":"5320023","stateKana":"オオサカフ","cityKana":"オオサカシヨドガワク","streetKana":"ジュウソウヒガシ","state":"大阪府","city":"大阪市淀川区","street":"十三東"},
		{"zipCode":"5590021","stateKana":"オオサカフ","cityKana":"オオサカシスミノエク","streetKana":"シバタニ","state":"大阪府","city":"大阪市住之江区","street":"柴谷"},
		{"zipCode":"5470035","stateKana":"オオサカフ","cityKana":"オオサカシヒラノク","streetKana":"ニシワキ","state":"大阪府","city":"大阪市平野区","street":"西脇"},
		{"zipCode":"5300003","stateKana":"オオサカフ","cityKana":"オオサカシキタク","streetKana":"ドウジマ","state":"大阪府","city":"大阪市北区","street":"堂島"},
		{"zipCode":"5410048","stateKana":"オオサカフ","cityKana":"オオサカシチュウオウク","streetKana":"カワラマチ","state":"大阪府","city":"大阪市中央区","street":"瓦町"},
		{"zipCode":"5420085","stateKana":"オオサカフ","cityKana":"オオサカシチュウオウク","streetKana":"シンサイバシスジ","state":"大阪府","city":"大阪市中央区","street":"心斎橋筋"},
		{"zipCode":"5900004","stateKana":"オオサカフ","cityKana":"サカイシサカイク","streetKana":"キタシミズチョウ","state":"大阪府","city":"堺市堺区","street":"北清水町"},
		{"zipCode":"5900957","stateKana":"オオサカフ","cityKana":"サカイシサカイク","streetKana":"ナカノチョウニシ","state":"大阪府","city":"堺市堺区","street":"中之町西"},
		{"zipCode":"5900933","stateKana":"オオサカフ","cityKana":"サカイシサカイク","streetKana":"ヤナギノチョウヒガシ","state":"大阪府","city":"堺市堺区","street":"柳之町東"},
		{"zipCode":"5900105","stateKana":"オオサカフ","cityKana":"サカイシミナミク","streetKana":"タケシロダイ","state":"大阪府","city":"堺市南区","street":"竹城台"},
		{"zipCode":"5918023","stateKana":"オオサカフ","cityKana":"サカイシキタク","streetKana":"ナカモズチョウ","state":"大阪府","city":"堺市北区","street":"中百舌鳥町"},
		{"zipCode":"5870042","stateKana":"オオサカフ","cityKana":"サカイシミハラク","streetKana":"モクザイドオリ","state":"大阪府","city":"堺市美原区","street":"木材通"},
		{"zipCode":"5610894","stateKana":"オオサカフ","cityKana":"トヨナカシ","streetKana":"カツベ","state":"大阪府","city":"豊中市","street":"勝部"},
		{"zipCode":"5610844","stateKana":"オオサカフ","cityKana":"トヨナカシ","streetKana":"トクラニシ","state":"大阪府","city":"豊中市","street":"利倉西"},
		{"zipCode":"5610882","stateKana":"オオサカフ","cityKana":"トヨナカシ","streetKana":"ミナミサクラヅカ","state":"大阪府","city":"豊中市","street":"南桜塚"},
		{"zipCode":"5630024","stateKana":"オオサカフ","cityKana":"イケダシ","streetKana":"ハチヅカ","state":"大阪府","city":"池田市","street":"鉢塚"},
		{"zipCode":"5691044","stateKana":"オオサカフ","cityKana":"タカツキシ","streetKana":"カミハムロ","state":"大阪府","city":"高槻市","street":"上土室"},
		{"zipCode":"5690823","stateKana":"オオサカフ","cityKana":"タカツキシ","streetKana":"シボチョウ","state":"大阪府","city":"高槻市","street":"芝生町"},
		{"zipCode":"5700081","stateKana":"オオサカフ","cityKana":"モリグチシ","streetKana":"ヒヨシチョウ","state":"大阪府","city":"守口市","street":"日吉町"},
		{"zipCode":"5731112","stateKana":"オオサカフ","cityKana":"ヒラカタシ","streetKana":"クズハミサキ","state":"大阪府","city":"枚方市","street":"楠葉美咲"},
		{"zipCode":"5730125","stateKana":"オオサカフ","cityKana":"ヒラカタシ","streetKana":"ツダエキマエ","state":"大阪府","city":"枚方市","street":"津田駅前"},
		{"zipCode":"5731144","stateKana":"オオサカフ","cityKana":"ヒラカタシ","streetKana":"マキノホンマチ","state":"大阪府","city":"枚方市","street":"牧野本町"},
		{"zipCode":"5670868","stateKana":"オオサカフ","cityKana":"イバラキシ","streetKana":"サワラギニシ","state":"大阪府","city":"茨木市","street":"沢良宜西"},
		{"zipCode":"5810833","stateKana":"オオサカフ","cityKana":"ヤオシ","streetKana":"アサヒガオカ","state":"大阪府","city":"八尾市","street":"旭ケ丘"},
		{"zipCode":"5810835","stateKana":"オオサカフ","cityKana":"ヤオシ","streetKana":"コハタチョウ","state":"大阪府","city":"八尾市","street":"小畑町"},
		{"zipCode":"5810002","stateKana":"オオサカフ","cityKana":"ヤオシ","streetKana":"ヒガシキュウホウジ","state":"大阪府","city":"八尾市","street":"東久宝寺"},
		{"zipCode":"5980046","stateKana":"オオサカフ","cityKana":"イズミサノシ","streetKana":"ハグラザキ","state":"大阪府","city":"泉佐野市","street":"羽倉崎"},
		{"zipCode":"5840031","stateKana":"オオサカフ","cityKana":"トンダバヤシシ","streetKana":"コトブキチョウ","state":"大阪府","city":"富田林市","street":"寿町"},
		{"zipCode":"5800034","stateKana":"オオサカフ","cityKana":"マツバラシ","streetKana":"アマミニシ","state":"大阪府","city":"松原市","street":"天美西"},
		{"zipCode":"5740064","stateKana":"オオサカフ","cityKana":"ダイトウシ","streetKana":"ゴリョウ","state":"大阪府","city":"大東市","street":"御領"},
		{"zipCode":"5830857","stateKana":"オオサカフ","cityKana":"ハビキノシ","streetKana":"コンダ","state":"大阪府","city":"羽曳野市","street":"誉田"},
		{"zipCode":"5710007","stateKana":"オオサカフ","cityKana":"カドマシ","streetKana":"キタキシワダ","state":"大阪府","city":"門真市","street":"北岸和田"},
		{"zipCode":"5830011","stateKana":"オオサカフ","cityKana":"フジイデラシ","streetKana":"サワダ","state":"大阪府","city":"藤井寺市","street":"沢田"},
		{"zipCode":"5770824","stateKana":"オオサカフ","cityKana":"ヒガシオオサカシ","streetKana":"オオハスヒガシ","state":"大阪府","city":"東大阪市","street":"大蓮東"},
		{"zipCode":"5770818","stateKana":"オオサカフ","cityKana":"ヒガシオオサカシ","streetKana":"コワカエ","state":"大阪府","city":"東大阪市","street":"小若江"},
		{"zipCode":"5770056","stateKana":"オオサカフ","cityKana":"ヒガシオオサカシ","streetKana":"チョウドウ","state":"大阪府","city":"東大阪市","street":"長堂"},
		{"zipCode":"5780984","stateKana":"オオサカフ","cityKana":"ヒガシオオサカシ","streetKana":"ヒシエ","state":"大阪府","city":"東大阪市","street":"菱江"},
		{"zipCode":"5780904","stateKana":"オオサカフ","cityKana":"ヒガシオオサカシ","streetKana":"ヨシハラ","state":"大阪府","city":"東大阪市","street":"吉原"},
		{"zipCode":"5760062","stateKana":"オオサカフ","cityKana":"カタノシ","streetKana":"ジングウジ","state":"大阪府","city":"交野市","street":"神宮寺"},
		{"zipCode":"5890001","stateKana":"オオサカフ","cityKana":"オオサカサヤマシ","streetKana":"ヒガシノニシ","state":"大阪府","city":"大阪狭山市","street":"東野西"},
		{"zipCode":"5900412","stateKana":"オオサカフ","cityKana":"センナングンクマトリチョウ","streetKana":"コンヤ","state":"大阪府","city":"泉南郡熊取町","street":"紺屋"},
		{"zipCode":"6570814","stateKana":"ヒョウゴケン","cityKana":"コウベシナダク","streetKana":"ゴモウドオリ","state":"兵庫県","city":"神戸市灘区","street":"五毛通"},
		{"zipCode":"6520864","stateKana":"ヒョウゴケン","cityKana":"コウベシヒョウゴク","streetKana":"カサマツドオリ","state":"兵庫県","city":"神戸市兵庫区","street":"笠松通"},
		{"zipCode":"6520846","stateKana":"ヒョウゴケン","cityKana":"コウベシヒョウゴク","streetKana":"デザイケチョウ","state":"兵庫県","city":"神戸市兵庫区","street":"出在家町"},
		{"zipCode":"6520883","stateKana":"ヒョウゴケン","cityKana":"コウベシヒョウゴク","streetKana":"メイワドオリ","state":"兵庫県","city":"神戸市兵庫区","street":"明和通"},
		{"zipCode":"6530851","stateKana":"ヒョウゴケン","cityKana":"コウベシナガタク","streetKana":"ゴイノイケチョウ","state":"兵庫県","city":"神戸市長田区","street":"五位ノ池町"},
		{"zipCode":"6540008","stateKana":"ヒョウゴケン","cityKana":"コウベシスマク","streetKana":"キクイケチョウ","state":"兵庫県","city":"神戸市須磨区","street":"菊池町"},
		{"zipCode":"6540154","stateKana":"ヒョウゴケン","cityKana":"コウベシスマク","streetKana":"ナカオチアイ","state":"兵庫県","city":"神戸市須磨区","street":"中落合"},
		{"zipCode":"6550014","stateKana":"ヒョウゴケン","cityKana":"コウベシタルミク","streetKana":"オオマチ","state":"兵庫県","city":"神戸市垂水区","street":"大町"},
		{"zipCode":"6550896","stateKana":"ヒョウゴケン","cityKana":"コウベシタルミク","streetKana":"ナカミチ","state":"兵庫県","city":"神戸市垂水区","street":"中道"},
		{"zipCode":"6511121","stateKana":"ヒョウゴケン","cityKana":"コウベシキタク","streetKana":"セイワダイ","state":"兵庫県","city":"神戸市北区","street":"星和台"},
		{"zipCode":"6511147","stateKana":"ヒョウゴケン","cityKana":"コウベシキタク","streetKana":"マツミヤダイ","state":"兵庫県","city":"神戸市北区","street":"松宮台"},
		{"zipCode":"6500002","stateKana":"ヒョウゴケン","cityKana":"コウベシチュウオウク","streetKana":"キタノチョウ","state":"兵庫県","city":"神戸市中央区","street":"北野町"},
		{"zipCode":"6500044","stateKana":"ヒョウゴケン","cityKana":"コウベシチュウオウク","streetKana":"ヒガシカワサキチョウ","state":"兵庫県","city":"神戸市中央区","street":"東川崎町"},
		{"zipCode":"6512273","stateKana":"ヒョウゴケン","cityKana":"コウベシニシク","streetKana":"コウジダイ","state":"兵庫県","city":"神戸市西区","street":"糀台"},
		{"zipCode":"6700081","stateKana":"ヒョウゴケン","cityKana":"ヒメジシ","streetKana":"タデラヒガシ","state":"兵庫県","city":"姫路市","street":"田寺東"},
		{"zipCode":"6610023","stateKana":"ヒョウゴケン","cityKana":"アマガサキシ","streetKana":"オオニシチョウ","state":"兵庫県","city":"尼崎市","street":"大西町"},
		{"zipCode":"6600094","stateKana":"ヒョウゴケン","cityKana":"アマガサキシ","streetKana":"スエヒロチョウ","state":"兵庫県","city":"尼崎市","street":"末広町"},
		{"zipCode":"6610032","stateKana":"ヒョウゴケン","cityKana":"アマガサキシ","streetKana":"ムコノソウヒガシ","state":"兵庫県","city":"尼崎市","street":"武庫之荘東"},
		{"zipCode":"6730862","stateKana":"ヒョウゴケン","cityKana":"アカシシ","streetKana":"マツガオカ","state":"兵庫県","city":"明石市","street":"松が丘"},
		{"zipCode":"6638114","stateKana":"ヒョウゴケン","cityKana":"ニシノミヤシ","streetKana":"カミコウシエン","state":"兵庫県","city":"西宮市","street":"上甲子園"},
		{"zipCode":"6640861","stateKana":"ヒョウゴケン","cityKana":"イタミシ","streetKana":"イナノチョウ","state":"兵庫県","city":"伊丹市","street":"稲野町"},
		{"zipCode":"6640023","stateKana":"ヒョウゴケン","cityKana":"イタミシ","streetKana":"ナカノニシ","state":"兵庫県","city":"伊丹市","street":"中野西"},
		{"zipCode":"6650062","stateKana":"ヒョウゴケン","cityKana":"タカラヅカシ","streetKana":"ニガワタカダイ","state":"兵庫県","city":"宝塚市","street":"仁川高台"},
		{"zipCode":"6730436","stateKana":"ヒョウゴケン","cityKana":"ミキシ","streetKana":"サツキダイ","state":"兵庫県","city":"三木市","street":"さつき台"},
		{"zipCode":"6760076","stateKana":"ヒョウゴケン","cityKana":"タカサゴシ","streetKana":"イホザキ","state":"兵庫県","city":"高砂市","street":"伊保崎"},
		{"zipCode":"6760022","stateKana":"ヒョウゴケン","cityKana":"タカサゴシ","streetKana":"タカサゴチョウハマダマチ","state":"兵庫県","city":"高砂市","street":"高砂町浜田町"},
		{"zipCode":"6660024","stateKana":"ヒョウゴケン","cityKana":"カワニシシ","streetKana":"クシロ","state":"兵庫県","city":"川西市","street":"久代"},
		{"zipCode":"6310817","stateKana":"ナラケン","cityKana":"ナラシ","streetKana":"サイダイジキタマチ","state":"奈良県","city":"奈良市","street":"西大寺北町"},
		{"zipCode":"6340077","stateKana":"ナラケン","cityKana":"カシハラシ","streetKana":"ミナミヤギチョウ","state":"奈良県","city":"橿原市","street":"南八木町"},
		{"zipCode":"6370038","stateKana":"ナラケン","cityKana":"ゴジョウシ","streetKana":"ノハラヒガシ","state":"奈良県","city":"五條市","street":"野原東"},
		{"zipCode":"6360802","stateKana":"ナラケン","cityKana":"イコマグンサンゴウチョウ","streetKana":"ミムロ","state":"奈良県","city":"生駒郡三郷町","street":"三室"},
		{"zipCode":"6390216","stateKana":"ナラケン","cityKana":"キタカツラギグンカンマキチョウ","streetKana":"ショウリエン","state":"奈良県","city":"北葛城郡上牧町","street":"松里園"},
		{"zipCode":"6380833","stateKana":"ナラケン","cityKana":"ヨシノグンオオヨドチョウ","streetKana":"フクガミ","state":"奈良県","city":"吉野郡大淀町","street":"福神"},
		{"zipCode":"6480092","stateKana":"ワカヤマケン","cityKana":"ハシモトシ","streetKana":"キミガオカ","state":"和歌山県","city":"橋本市","street":"紀見ケ丘"},
		{"zipCode":"6460061","stateKana":"ワカヤマケン","cityKana":"タナベシ","streetKana":"ウエノヤマ","state":"和歌山県","city":"田辺市","street":"上の山"},
		{"zipCode":"6808062","stateKana":"トットリケン","cityKana":"トットリシ","streetKana":"コクフチョウイナバガオカ","state":"鳥取県","city":"鳥取市","street":"国府町稲葉丘"},
		{"zipCode":"6891111","stateKana":"トットリケン","cityKana":"トットリシ","streetKana":"ワカバダイキタ","state":"鳥取県","city":"鳥取市","street":"若葉台北"},
		{"zipCode":"6830047","stateKana":"トットリケン","cityKana":"ヨナゴシ","streetKana":"ギオンチョウ","state":"鳥取県","city":"米子市","street":"祇園町"},
		{"zipCode":"6900048","stateKana":"シマネケン","cityKana":"マツエシ","streetKana":"ニシヨメシマ","state":"島根県","city":"松江市","street":"西嫁島"},
		{"zipCode":"7000975","stateKana":"オカヤマケン","cityKana":"オカヤマシキタク","streetKana":"イマ","state":"岡山県","city":"岡山市北区","street":"今"},
		{"zipCode":"7048112","stateKana":"オカヤマケン","cityKana":"オカヤマシヒガシク","streetKana":"サイダイジカミ","state":"岡山県","city":"岡山市東区","street":"西大寺上"},
		{"zipCode":"7110914","stateKana":"オカヤマケン","cityKana":"クラシキシ","streetKana":"コジマアジノジョウ","state":"岡山県","city":"倉敷市","street":"児島味野城"},
		{"zipCode":"7138121","stateKana":"オカヤマケン","cityKana":"クラシキシ","streetKana":"タマシマアガサキ","state":"岡山県","city":"倉敷市","street":"玉島阿賀崎"},
		{"zipCode":"7320052","stateKana":"ヒロシマケン","cityKana":"ヒロシマシヒガシク","streetKana":"ヒカリマチ","state":"広島県","city":"広島市東区","street":"光町"},
		{"zipCode":"7330815","stateKana":"ヒロシマケン","cityKana":"ヒロシマシニシク","streetKana":"コイウエ","state":"広島県","city":"広島市西区","street":"己斐上"},
		{"zipCode":"7310141","stateKana":"ヒロシマケン","cityKana":"ヒロシマシアサミナミク","streetKana":"アイタ","state":"広島県","city":"広島市安佐南区","street":"相田"},
		{"zipCode":"7360083","stateKana":"ヒロシマケン","cityKana":"ヒロシマシアキク","streetKana":"ヤノヒガシ","state":"広島県","city":"広島市安芸区","street":"矢野東"},
		{"zipCode":"7315144","stateKana":"ヒロシマケン","cityKana":"ヒロシマシサエキク","streetKana":"ミスジ","state":"広島県","city":"広島市佐伯区","street":"三筋"},
		{"zipCode":"7372603","stateKana":"ヒロシマケン","cityKana":"クレシ","streetKana":"カワジリチョウニシ","state":"広島県","city":"呉市","street":"川尻町西"},
		{"zipCode":"7210926","stateKana":"ヒロシマケン","cityKana":"フクヤマシ","streetKana":"ダイモンチョウ","state":"広島県","city":"福山市","street":"大門町"},
		{"zipCode":"7200839","stateKana":"ヒロシマケン","cityKana":"フクヤマシ","streetKana":"ヒガシミョウオウダイ","state":"広島県","city":"福山市","street":"東明王台"},
		{"zipCode":"7200834","stateKana":"ヒロシマケン","cityKana":"フクヤマシ","streetKana":"ミョウオウダイ","state":"広島県","city":"福山市","street":"明王台"},
		{"zipCode":"7380001","stateKana":"ヒロシマケン","cityKana":"ハツカイチシ","streetKana":"サガタ","state":"広島県","city":"廿日市市","street":"佐方"},
		{"zipCode":"7390414","stateKana":"ヒロシマケン","cityKana":"ハツカイチシ","streetKana":"ミヤジマグチヒガシ","state":"広島県","city":"廿日市市","street":"宮島口東"},
		{"zipCode":"7500084","stateKana":"ヤマグチケン","cityKana":"シモノセキシ","streetKana":"ヒコシマムカイチョウ","state":"山口県","city":"下関市","street":"彦島向井町"},
		{"zipCode":"7596603","stateKana":"ヤマグチケン","cityKana":"シモノセキシ","streetKana":"ヤスオカチョウ","state":"山口県","city":"下関市","street":"安岡町"},
		{"zipCode":"7530231","stateKana":"ヤマグチケン","cityKana":"ヤマグチシ","streetKana":"オオウチヒカミ","state":"山口県","city":"山口市","street":"大内氷上"},
		{"zipCode":"7470821","stateKana":"ヤマグチケン","cityKana":"ホウフシ","streetKana":"ケイゴマチ","state":"山口県","city":"防府市","street":"警固町"},
		{"zipCode":"7470848","stateKana":"ヤマグチケン","cityKana":"ホウフシ","streetKana":"ハナギチュウオウ","state":"山口県","city":"防府市","street":"華城中央"},
		{"zipCode":"7410092","stateKana":"ヤマグチケン","cityKana":"イワクニシ","streetKana":"タダ","state":"山口県","city":"岩国市","street":"多田"},
		{"zipCode":"7401425","stateKana":"ヤマグチケン","cityKana":"イワクニシ","streetKana":"ユウマチミナミオキ","state":"山口県","city":"岩国市","street":"由宇町南沖"},
		{"zipCode":"7430047","stateKana":"ヤマグチケン","cityKana":"ヒカリシ","streetKana":"ハナゾノ","state":"山口県","city":"光市","street":"花園"},
		{"zipCode":"7450037","stateKana":"ヤマグチケン","cityKana":"シュウナンシ","streetKana":"サカエマチ","state":"山口県","city":"周南市","street":"栄町"},
		{"zipCode":"7450865","stateKana":"ヤマグチケン","cityKana":"シュウナンシ","streetKana":"ハスガエキ","state":"山口県","city":"周南市","street":"蓮ヶ浴"},
		{"zipCode":"7450033","stateKana":"ヤマグチケン","cityKana":"シュウナンシ","streetKana":"ミナミギンザ","state":"山口県","city":"周南市","street":"みなみ銀座"},
		{"zipCode":"7570006","stateKana":"ヤマグチケン","cityKana":"サンヨウオノダシ","streetKana":"サクラ","state":"山口県","city":"山陽小野田市","street":"桜"},
		{"zipCode":"7700845","stateKana":"トクシマケン","cityKana":"トクシマシ","streetKana":"シンウチマチ","state":"徳島県","city":"徳島市","street":"新内町"},
		{"zipCode":"7700928","stateKana":"トクシマケン","cityKana":"トクシマシ","streetKana":"ニケンヤチョウ","state":"徳島県","city":"徳島市","street":"二軒屋町"},
		{"zipCode":"7700846","stateKana":"トクシマケン","cityKana":"トクシマシ","streetKana":"ミナミウチマチ","state":"徳島県","city":"徳島市","street":"南内町"},
		{"zipCode":"7630032","stateKana":"カガワケン","cityKana":"マルガメシ","streetKana":"ジョウセイチョウ","state":"香川県","city":"丸亀市","street":"城西町"},
		{"zipCode":"7620003","stateKana":"カガワケン","cityKana":"サカイデシ","streetKana":"クメチョウ","state":"香川県","city":"坂出市","street":"久米町"},
		{"zipCode":"7680064","stateKana":"カガワケン","cityKana":"カンオンジシ","streetKana":"コトナミチョウ","state":"香川県","city":"観音寺市","street":"琴浪町"},
		{"zipCode":"7900911","stateKana":"エヒメケン","cityKana":"マツヤマシ","streetKana":"クワバラ","state":"愛媛県","city":"松山市","street":"桑原"},
		{"zipCode":"7900942","stateKana":"エヒメケン","cityKana":"マツヤマシ","streetKana":"フルカワキタ","state":"愛媛県","city":"松山市","street":"古川北"},
		{"zipCode":"7940054","stateKana":"エヒメケン","cityKana":"イマバリシ","streetKana":"キタヒヨシチョウ","state":"愛媛県","city":"今治市","street":"北日吉町"},
		{"zipCode":"7940027","stateKana":"エヒメケン","cityKana":"イマバリシ","streetKana":"ミナミダイモンチョウ","state":"愛媛県","city":"今治市","street":"南大門町"},
		{"zipCode":"7980081","stateKana":"エヒメケン","cityKana":"ウワジマシ","streetKana":"ナカザワチョウ","state":"愛媛県","city":"宇和島市","street":"中沢町"},
		{"zipCode":"7960034","stateKana":"エヒメケン","cityKana":"ヤワタハマシ","streetKana":"ハマダマチ","state":"愛媛県","city":"八幡浜市","street":"浜田町"},
		{"zipCode":"7920813","stateKana":"エヒメケン","cityKana":"ニイハマシ","streetKana":"シモイズミチョウ","state":"愛媛県","city":"新居浜市","street":"下泉町"},
		{"zipCode":"7818008","stateKana":"コウチケン","cityKana":"コウチシ","streetKana":"ウシオシンマチ","state":"高知県","city":"高知市","street":"潮新町"},
		{"zipCode":"7800821","stateKana":"コウチケン","cityKana":"コウチシ","streetKana":"サクライチョウ","state":"高知県","city":"高知市","street":"桜井町"},
		{"zipCode":"7800066","stateKana":"コウチケン","cityKana":"コウチシ","streetKana":"ヒジマチョウ","state":"高知県","city":"高知市","street":"比島町"},
		{"zipCode":"7850003","stateKana":"コウチケン","cityKana":"スサキシ","streetKana":"シンマチ","state":"高知県","city":"須崎市","street":"新町"},
		{"zipCode":"8000008","stateKana":"フクオカケン","cityKana":"キタキュウシュウシモジク","streetKana":"クズハ","state":"福岡県","city":"北九州市門司区","street":"葛葉","chomeRange":"2､3"},
		{"zipCode":"8040011","stateKana":"フクオカケン","cityKana":"キタキュウシュウシトバタク","streetKana":"ナカバルニシ","state":"福岡県","city":"北九州市戸畑区","street":"中原西"},
		{"zipCode":"8020062","stateKana":"フクオカケン","cityKana":"キタキュウシュウシコクラキタク","streetKana":"カタノシンマチ","state":"福岡県","city":"北九州市小倉北区","street":"片野新町"},
		{"zipCode":"8020811","stateKana":"フクオカケン","cityKana":"キタキュウシュウシコクラミナミク","streetKana":"シゲズミ","state":"福岡県","city":"北九州市小倉南区","street":"重住"},
		{"zipCode":"8000204","stateKana":"フクオカケン","cityKana":"キタキュウシュウシコクラミナミク","streetKana":"ナカヨシダ","state":"福岡県","city":"北九州市小倉南区","street":"中吉田"},
		{"zipCode":"8020822","stateKana":"フクオカケン","cityKana":"キタキュウシュウシコクラミナミク","streetKana":"ヨコシロヒガシマチ","state":"福岡県","city":"北九州市小倉南区","street":"横代東町"},
		{"zipCode":"8071125","stateKana":"フクオカケン","cityKana":"キタキュウシュウシヤハタニシク","streetKana":"イケダ","state":"福岡県","city":"北九州市八幡西区","street":"池田"},
		{"zipCode":"8060031","stateKana":"フクオカケン","cityKana":"キタキュウシュウシヤハタニシク","streetKana":"クマニシ","state":"福岡県","city":"北九州市八幡西区","street":"熊西"},
		{"zipCode":"8060022","stateKana":"フクオカケン","cityKana":"キタキュウシュウシヤハタニシク","streetKana":"フジタ","state":"福岡県","city":"北九州市八幡西区","street":"藤田"},
		{"zipCode":"8130011","stateKana":"フクオカケン","cityKana":"フクオカシヒガシク","streetKana":"カシイ","state":"福岡県","city":"福岡市東区","street":"香椎"},
		{"zipCode":"8120054","stateKana":"フクオカケン","cityKana":"フクオカシヒガシク","streetKana":"マイダシ","state":"福岡県","city":"福岡市東区","street":"馬出"},
		{"zipCode":"8120854","stateKana":"フクオカケン","cityKana":"フクオカシハカタク","streetKana":"ヒガシツキグマ","state":"福岡県","city":"福岡市博多区","street":"東月隈"},
		{"zipCode":"8100065","stateKana":"フクオカケン","cityKana":"フクオカシチュウオウク","streetKana":"ジギョウハマ","state":"福岡県","city":"福岡市中央区","street":"地行浜"},
		{"zipCode":"8150001","stateKana":"フクオカケン","cityKana":"フクオカシミナミク","streetKana":"ゴジッカワ","state":"福岡県","city":"福岡市南区","street":"五十川"},
		{"zipCode":"8190013","stateKana":"フクオカケン","cityKana":"フクオカシニシク","streetKana":"アタゴハマ","state":"福岡県","city":"福岡市西区","street":"愛宕浜"},
		{"zipCode":"8190383","stateKana":"フクオカケン","cityKana":"フクオカシニシク","streetKana":"タジリ","state":"福岡県","city":"福岡市西区","street":"田尻"},
		{"zipCode":"8140151","stateKana":"フクオカケン","cityKana":"フクオカシジョウナンク","streetKana":"ツツミ","state":"福岡県","city":"福岡市城南区","street":"堤"},
		{"zipCode":"8140011","stateKana":"フクオカケン","cityKana":"フクオカシサワラク","streetKana":"タカトリ","state":"福岡県","city":"福岡市早良区","street":"高取"},
		{"zipCode":"8360882","stateKana":"フクオカケン","cityKana":"オオムタシ","streetKana":"ウスイシンマチ","state":"福岡県","city":"大牟田市","street":"臼井新町"},
		{"zipCode":"8370928","stateKana":"フクオカケン","cityKana":"オオムタシ","streetKana":"シモシラカワマチ","state":"福岡県","city":"大牟田市","street":"下白川町"},
		{"zipCode":"8360033","stateKana":"フクオカケン","cityKana":"オオムタシ","streetKana":"マツバラマチ","state":"福岡県","city":"大牟田市","street":"松原町"},
		{"zipCode":"8390809","stateKana":"フクオカケン","cityKana":"クルメシ","streetKana":"ヒガシアイカワ","state":"福岡県","city":"久留米市","street":"東合川"},
		{"zipCode":"8390812","stateKana":"フクオカケン","cityKana":"クルメシ","streetKana":"ヤマカワアイノ","state":"福岡県","city":"久留米市","street":"山川安居野"},
		{"zipCode":"8180072","stateKana":"フクオカケン","cityKana":"チクシノシ","streetKana":"フツカイチチュウオウ","state":"福岡県","city":"筑紫野市","street":"二日市中央"},
		{"zipCode":"8160807","stateKana":"フクオカケン","cityKana":"カスガシ","streetKana":"タカラマチ","state":"福岡県","city":"春日市","street":"宝町"},
		{"zipCode":"8160906","stateKana":"フクオカケン","cityKana":"オオノジョウシ","streetKana":"ナカ","state":"福岡県","city":"大野城市","street":"中"},
		{"zipCode":"8180119","stateKana":"フクオカケン","cityKana":"ダザイフシ","streetKana":"レンガヤ","state":"福岡県","city":"太宰府市","street":"連歌屋"},
		{"zipCode":"8111254","stateKana":"フクオカケン","cityKana":"ナカガワシ","streetKana":"ドウゼン","state":"福岡県","city":"那珂川市","street":"道善"},
		{"zipCode":"8110112","stateKana":"フクオカケン","cityKana":"カスヤグンシングウマチ","streetKana":"シモノフ","state":"福岡県","city":"糟屋郡新宮町","street":"下府"},
		{"zipCode":"8112314","stateKana":"フクオカケン","cityKana":"カスヤグンカスヤマチ","streetKana":"ワカミヤ","state":"福岡県","city":"糟屋郡粕屋町","street":"若宮"},
		{"zipCode":"8114242","stateKana":"フクオカケン","cityKana":"オンガグンオカガキマチ","streetKana":"ヨシキニシ","state":"福岡県","city":"遠賀郡岡垣町","street":"吉木西"},
		{"zipCode":"8400041","stateKana":"サガケン","cityKana":"サガシ","streetKana":"ジョウナイ","state":"佐賀県","city":"佐賀市","street":"城内"},
		{"zipCode":"8410033","stateKana":"サガケン","cityKana":"トスシ","streetKana":"ホンドオリマチ","state":"佐賀県","city":"鳥栖市","street":"本通町"},
		{"zipCode":"8510122","stateKana":"ナガサキケン","cityKana":"ナガサキシ","streetKana":"サカイ","state":"長崎県","city":"長崎市","street":"界"},
		{"zipCode":"8500836","stateKana":"ナガサキケン","cityKana":"ナガサキシ","streetKana":"ナカコシマ","state":"長崎県","city":"長崎市","street":"中小島"},
		{"zipCode":"8560046","stateKana":"ナガサキケン","cityKana":"オオムラシ","streetKana":"コバ","state":"長崎県","city":"大村市","street":"木場"},
		{"zipCode":"8620901","stateKana":"クマモトケン","cityKana":"クマモトシヒガシク","streetKana":"ヒガシマチ","state":"熊本県","city":"熊本市東区","street":"東町"},
		{"zipCode":"8600056","stateKana":"クマモトケン","cityKana":"クマモトシニシク","streetKana":"シントガワラ","state":"熊本県","city":"熊本市西区","street":"新土河原"},
		{"zipCode":"8614115","stateKana":"クマモトケン","cityKana":"クマモトシミナミク","streetKana":"カワシリ","state":"熊本県","city":"熊本市南区","street":"川尻"},
		{"zipCode":"8614135","stateKana":"クマモトケン","cityKana":"クマモトシミナミク","streetKana":"トビマチ","state":"熊本県","city":"熊本市南区","street":"鳶町"},
		{"zipCode":"8660831","stateKana":"クマモトケン","cityKana":"ヤツシロシ","streetKana":"ハギワラマチ","state":"熊本県","city":"八代市","street":"萩原町"},
		{"zipCode":"8700129","stateKana":"オオイタケン","cityKana":"オオイタシ","streetKana":"キョウガオカミナミ","state":"大分県","city":"大分市","street":"京が丘南"},
		{"zipCode":"8700244","stateKana":"オオイタケン","cityKana":"オオイタシ","streetKana":"スガ","state":"大分県","city":"大分市","street":"須賀"},
		{"zipCode":"8701145","stateKana":"オオイタケン","cityKana":"オオイタシ","streetKana":"タジリミナミ","state":"大分県","city":"大分市","street":"田尻南"},
		{"zipCode":"8701126","stateKana":"オオイタケン","cityKana":"オオイタシ","streetKana":"ハンダダイキタ","state":"大分県","city":"大分市","street":"判田台北"},
		{"zipCode":"8710016","stateKana":"オオイタケン","cityKana":"ナカツシ","streetKana":"ウシガミマチ","state":"大分県","city":"中津市","street":"牛神町"},
		{"zipCode":"8760803","stateKana":"オオイタケン","cityKana":"サイキシ","streetKana":"エキマエ","state":"大分県","city":"佐伯市","street":"駅前"},
		{"zipCode":"8800816","stateKana":"ミヤザキケン","cityKana":"ミヤザキシ","streetKana":"エヒラヒガシ","state":"宮崎県","city":"宮崎市","street":"江平東"},
		{"zipCode":"8820045","stateKana":"ミヤザキケン","cityKana":"ノベオカシ","streetKana":"セノクチマチ","state":"宮崎県","city":"延岡市","street":"瀬之口町"},
		{"zipCode":"8892535","stateKana":"ミヤザキケン","cityKana":"ニチナンシ","streetKana":"オビ","state":"宮崎県","city":"日南市","street":"飫肥"},
		{"zipCode":"8830066","stateKana":"ミヤザキケン","cityKana":"ヒュウガシ","streetKana":"カメザキ","state":"宮崎県","city":"日向市","street":"亀崎"},
		{"zipCode":"8891411","stateKana":"ミヤザキケン","cityKana":"コユグンシントミチョウ","streetKana":"トンダ","state":"宮崎県","city":"児湯郡新富町","street":"富田"},
		{"zipCode":"8910114","stateKana":"カゴシマケン","cityKana":"カゴシマシ","streetKana":"コマツバラ","state":"鹿児島県","city":"鹿児島市","street":"小松原"},
		{"zipCode":"8910109","stateKana":"カゴシマケン","cityKana":"カゴシマシ","streetKana":"セイワ","state":"鹿児島県","city":"鹿児島市","street":"清和"},
		{"zipCode":"8910406","stateKana":"カゴシマケン","cityKana":"イブスキシ","streetKana":"ユノハマ","state":"鹿児島県","city":"指宿市","street":"湯の浜"},
		{"zipCode":"8998602","stateKana":"カゴシマケン","cityKana":"ソオシ","streetKana":"スエヨシチョウサカエマチ","state":"鹿児島県","city":"曽於市","street":"末吉町栄町"},
		{"zipCode":"8994322","stateKana":"カゴシマケン","cityKana":"キリシマシ","streetKana":"コクブフクシマ","state":"鹿児島県","city":"霧島市","street":"国分福島"},
		{"zipCode":"9000021","stateKana":"オキナワケン","cityKana":"ナハシ","streetKana":"イズミザキ","state":"沖縄県","city":"那覇市","street":"泉崎"}
	]
}
